{"type":"FeatureCollection","features":[{"type":"Feature","properties":{"name":"Allen","year":1980,"wind_kt":130,"category":4,"storm_id":"AL041980"},"geometry":{"type":"LineString","coordinates":[[-91.8,23.9],[-93.0,24.5]]}},{"type":"Feature","properties":{"name":"Allen","year":1980,"wind_kt":145,"category":5,"storm_id":"AL041980"},"geometry":{"type":"LineString","coordinates":[[-93.0,24.5],[-94.2,25.0]]}},{"type":"Feature","properties":{"name":"Allen","year":1980,"wind_kt":155,"category":5,"storm_id":"AL041980"},"geometry":{"type":"LineString","coordinates":[[-94.2,25.0],[-95.4,25.2]]}},{"type":"Feature","properties":{"name":"Allen","year":1980,"wind_kt":140,"category":5,"storm_id":"AL041980"},"geometry":{"type":"LineString","coordinates":[[-95.4,25.2],[-96.1,25.4]]}},{"type":"Feature","properties":{"name":"Allen","year":1980,"wind_kt":125,"category":4,"storm_id":"AL041980"},"geometry":{"type":"LineString","coordinates":[[-96.1,25.4],[-96.8,25.8]]}},{"type":"Feature","properties":{"name":"Allen","year":1980,"wind_kt":110,"category":3,"storm_id":"AL041980"},"geometry":{"type":"LineString","coordinates":[[-96.8,25.8],[-97.2,26.1]]}},{"type":"Feature","properties":{"name":"Allen","year":1980,"wind_kt":100,"category":3,"storm_id":"AL041980"},"geometry":{"type":"LineString","coordinates":[[-97.2,26.1],[-98.1,26.7]]}},{"type":"Feature","properties":{"name":"Allen","year":1980,"wind_kt":85,"category":2,"storm_id":"AL041980"},"geometry":{"type":"LineString","coordinates":[[-98.1,26.7],[-99.0,27.3]]}},{"type":"Feature","properties":{"name":"Allen","year":1980,"wind_kt":70,"category":1,"storm_id":"AL041980"},"geometry":{"type":"LineString","coordinates":[[-99.0,27.3],[-99.8,27.7]]}},{"type":"Feature","properties":{"name":"Allen","year":1980,"wind_kt":60,"category":0,"storm_id":"AL041980"},"geometry":{"type":"LineString","coordinates":[[-99.8,27.7],[-100.9,28.0]]}},{"type":"Feature","properties":{"name":"Allen","year":1980,"wind_kt":45,"category":0,"storm_id":"AL041980"},"geometry":{"type":"LineString","coordinates":[[-100.9,28.0],[-101.9,28.5]]}},{"type":"Feature","properties":{"name":"Danielle","year":1980,"wind_kt":50,"category":0,"storm_id":"AL111980"},"geometry":{"type":"LineString","coordinates":[[-93.4,29.4],[-94.9,29.4]]}},{"type":"Feature","properties":{"name":"Danielle","year":1980,"wind_kt":40,"category":0,"storm_id":"AL111980"},"geometry":{"type":"LineString","coordinates":[[-94.9,29.4],[-96.3,29.3]]}},{"type":"Feature","properties":{"name":"Danielle","year":1980,"wind_kt":35,"category":0,"storm_id":"AL111980"},"geometry":{"type":"LineString","coordinates":[[-96.3,29.3],[-97.0,29.1]]}},{"type":"Feature","properties":{"name":"Jeanne","year":1980,"wind_kt":55,"category":0,"storm_id":"AL161980"},"geometry":{"type":"LineString","coordinates":[[-91.6,24.9],[-92.8,25.6]]}},{"type":"Feature","properties":{"name":"Jeanne","year":1980,"wind_kt":60,"category":0,"storm_id":"AL161980"},"geometry":{"type":"LineString","coordinates":[[-92.8,25.6],[-94.0,25.6]]}},{"type":"Feature","properties":{"name":"Jeanne","year":1980,"wind_kt":60,"category":0,"storm_id":"AL161980"},"geometry":{"type":"LineString","coordinates":[[-94.0,25.6],[-95.0,25.5]]}},{"type":"Feature","properties":{"name":"Jeanne","year":1980,"wind_kt":55,"category":0,"storm_id":"AL161980"},"geometry":{"type":"LineString","coordinates":[[-95.0,25.5],[-95.2,25.6]]}},{"type":"Feature","properties":{"name":"Jeanne","year":1980,"wind_kt":50,"category":0,"storm_id":"AL161980"},"geometry":{"type":"LineString","coordinates":[[-95.2,25.6],[-95.2,25.8]]}},{"type":"Feature","properties":{"name":"Jeanne","year":1980,"wind_kt":50,"category":0,"storm_id":"AL161980"},"geometry":{"type":"LineString","coordinates":[[-95.2,25.8],[-94.8,26.0]]}},{"type":"Feature","properties":{"name":"Jeanne","year":1980,"wind_kt":40,"category":0,"storm_id":"AL161980"},"geometry":{"type":"LineString","coordinates":[[-94.8,26.0],[-94.4,26.2]]}},{"type":"Feature","properties":{"name":"Chris","year":1982,"wind_kt":35,"category":0,"storm_id":"AL051982"},"geometry":{"type":"LineString","coordinates":[[-94.2,27.3],[-94.1,27.9]]}},{"type":"Feature","properties":{"name":"Chris","year":1982,"wind_kt":45,"category":0,"storm_id":"AL051982"},"geometry":{"type":"LineString","coordinates":[[-94.1,27.9],[-94.1,28.4]]}},{"type":"Feature","properties":{"name":"Chris","year":1982,"wind_kt":50,"category":0,"storm_id":"AL051982"},"geometry":{"type":"LineString","coordinates":[[-94.1,28.4],[-94.0,29.0]]}},{"type":"Feature","properties":{"name":"Chris","year":1982,"wind_kt":50,"category":0,"storm_id":"AL051982"},"geometry":{"type":"LineString","coordinates":[[-94.0,29.0],[-93.8,29.8]]}},{"type":"Feature","properties":{"name":"Chris","year":1982,"wind_kt":55,"category":0,"storm_id":"AL051982"},"geometry":{"type":"LineString","coordinates":[[-93.8,29.8],[-93.4,30.8]]}},{"type":"Feature","properties":{"name":"Chris","year":1982,"wind_kt":40,"category":0,"storm_id":"AL051982"},"geometry":{"type":"LineString","coordinates":[[-93.4,30.8],[-93.2,31.8]]}},{"type":"Feature","properties":{"name":"Alicia","year":1983,"wind_kt":45,"category":0,"storm_id":"AL031983"},"geometry":{"type":"LineString","coordinates":[[-91.5,27.1],[-92.0,27.0]]}},{"type":"Feature","properties":{"name":"Alicia","year":1983,"wind_kt":50,"category":0,"storm_id":"AL031983"},"geometry":{"type":"LineString","coordinates":[[-92.0,27.0],[-92.4,27.1]]}},{"type":"Feature","properties":{"name":"Alicia","year":1983,"wind_kt":55,"category":0,"storm_id":"AL031983"},"geometry":{"type":"LineString","coordinates":[[-92.4,27.1],[-92.8,27.3]]}},{"type":"Feature","properties":{"name":"Alicia","year":1983,"wind_kt":60,"category":0,"storm_id":"AL031983"},"geometry":{"type":"LineString","coordinates":[[-92.8,27.3],[-93.3,27.4]]}},{"type":"Feature","properties":{"name":"Alicia","year":1983,"wind_kt":65,"category":1,"storm_id":"AL031983"},"geometry":{"type":"LineString","coordinates":[[-93.3,27.4],[-93.7,27.7]]}},{"type":"Feature","properties":{"name":"Alicia","year":1983,"wind_kt":70,"category":1,"storm_id":"AL031983"},"geometry":{"type":"LineString","coordinates":[[-93.7,27.7],[-94.2,27.9]]}},{"type":"Feature","properties":{"name":"Alicia","year":1983,"wind_kt":75,"category":1,"storm_id":"AL031983"},"geometry":{"type":"LineString","coordinates":[[-94.2,27.9],[-94.5,28.1]]}},{"type":"Feature","properties":{"name":"Alicia","year":1983,"wind_kt":90,"category":2,"storm_id":"AL031983"},"geometry":{"type":"LineString","coordinates":[[-94.5,28.1],[-94.8,28.4]]}},{"type":"Feature","properties":{"name":"Alicia","year":1983,"wind_kt":95,"category":2,"storm_id":"AL031983"},"geometry":{"type":"LineString","coordinates":[[-94.8,28.4],[-95.0,28.9]]}},{"type":"Feature","properties":{"name":"Alicia","year":1983,"wind_kt":100,"category":3,"storm_id":"AL031983"},"geometry":{"type":"LineString","coordinates":[[-95.0,28.9],[-95.1,29.1]]}},{"type":"Feature","properties":{"name":"Alicia","year":1983,"wind_kt":100,"category":3,"storm_id":"AL031983"},"geometry":{"type":"LineString","coordinates":[[-95.1,29.1],[-95.5,29.7]]}},{"type":"Feature","properties":{"name":"Alicia","year":1983,"wind_kt":80,"category":1,"storm_id":"AL031983"},"geometry":{"type":"LineString","coordinates":[[-95.5,29.7],[-96.0,30.5]]}},{"type":"Feature","properties":{"name":"Alicia","year":1983,"wind_kt":40,"category":0,"storm_id":"AL031983"},"geometry":{"type":"LineString","coordinates":[[-96.0,30.5],[-96.7,31.5]]}},{"type":"Feature","properties":{"name":"Alicia","year":1983,"wind_kt":35,"category":0,"storm_id":"AL031983"},"geometry":{"type":"LineString","coordinates":[[-96.7,31.5],[-97.4,32.4]]}},{"type":"Feature","properties":{"name":"Barry","year":1983,"wind_kt":35,"category":0,"storm_id":"AL041983"},"geometry":{"type":"LineString","coordinates":[[-91.6,25.8],[-93.0,25.8]]}},{"type":"Feature","properties":{"name":"Barry","year":1983,"wind_kt":45,"category":0,"storm_id":"AL041983"},"geometry":{"type":"LineString","coordinates":[[-93.0,25.8],[-94.5,25.7]]}},{"type":"Feature","properties":{"name":"Barry","year":1983,"wind_kt":60,"category":0,"storm_id":"AL041983"},"geometry":{"type":"LineString","coordinates":[[-94.5,25.7],[-95.5,25.5]]}},{"type":"Feature","properties":{"name":"Barry","year":1983,"wind_kt":60,"category":0,"storm_id":"AL041983"},"geometry":{"type":"LineString","coordinates":[[-95.5,25.5],[-96.4,25.5]]}},{"type":"Feature","properties":{"name":"Barry","year":1983,"wind_kt":65,"category":1,"storm_id":"AL041983"},"geometry":{"type":"LineString","coordinates":[[-96.4,25.5],[-97.4,25.4]]}},{"type":"Feature","properties":{"name":"Barry","year":1983,"wind_kt":70,"category":1,"storm_id":"AL041983"},"geometry":{"type":"LineString","coordinates":[[-97.4,25.4],[-97.5,25.4]]}},{"type":"Feature","properties":{"name":"Barry","year":1983,"wind_kt":70,"category":1,"storm_id":"AL041983"},"geometry":{"type":"LineString","coordinates":[[-97.5,25.4],[-98.5,25.5]]}},{"type":"Feature","properties":{"name":"Barry","year":1983,"wind_kt":40,"category":0,"storm_id":"AL041983"},"geometry":{"type":"LineString","coordinates":[[-98.5,25.5],[-99.5,25.5]]}},{"type":"Feature","properties":{"name":"Danny","year":1985,"wind_kt":70,"category":1,"storm_id":"AL041985"},"geometry":{"type":"LineString","coordinates":[[-91.5,26.8],[-92.2,27.8]]}},{"type":"Feature","properties":{"name":"Danny","year":1985,"wind_kt":75,"category":1,"storm_id":"AL041985"},"geometry":{"type":"LineString","coordinates":[[-92.2,27.8],[-92.6,28.9]]}},{"type":"Feature","properties":{"name":"Danny","year":1985,"wind_kt":80,"category":1,"storm_id":"AL041985"},"geometry":{"type":"LineString","coordinates":[[-92.6,28.9],[-92.7,29.6]]}},{"type":"Feature","properties":{"name":"Danny","year":1985,"wind_kt":80,"category":1,"storm_id":"AL041985"},"geometry":{"type":"LineString","coordinates":[[-92.7,29.6],[-92.7,30.0]]}},{"type":"Feature","properties":{"name":"Danny","year":1985,"wind_kt":70,"category":1,"storm_id":"AL041985"},"geometry":{"type":"LineString","coordinates":[[-92.7,30.0],[-92.4,31.0]]}},{"type":"Feature","properties":{"name":"Danny","year":1985,"wind_kt":50,"category":0,"storm_id":"AL041985"},"geometry":{"type":"LineString","coordinates":[[-92.4,31.0],[-92.0,32.0]]}},{"type":"Feature","properties":{"name":"Danny","year":1985,"wind_kt":40,"category":0,"storm_id":"AL041985"},"geometry":{"type":"LineString","coordinates":[[-92.0,32.0],[-91.4,32.9]]}},{"type":"Feature","properties":{"name":"Elena","year":1985,"wind_kt":45,"category":0,"storm_id":"AL051985"},"geometry":{"type":"LineString","coordinates":[[-91.8,31.9],[-92.8,32.4]]}},{"type":"Feature","properties":{"name":"Juan","year":1985,"wind_kt":35,"category":0,"storm_id":"AL121985"},"geometry":{"type":"LineString","coordinates":[[-92.5,23.8],[-92.8,24.4]]}},{"type":"Feature","properties":{"name":"Juan","year":1985,"wind_kt":40,"category":0,"storm_id":"AL121985"},"geometry":{"type":"LineString","coordinates":[[-92.8,24.4],[-92.0,24.6]]}},{"type":"Feature","properties":{"name":"Juan","year":1985,"wind_kt":45,"category":0,"storm_id":"AL121985"},"geometry":{"type":"LineString","coordinates":[[-92.0,24.6],[-92.2,25.3]]}},{"type":"Feature","properties":{"name":"Juan","year":1985,"wind_kt":50,"category":0,"storm_id":"AL121985"},"geometry":{"type":"LineString","coordinates":[[-92.2,25.3],[-91.5,25.7]]}},{"type":"Feature","properties":{"name":"Juan","year":1985,"wind_kt":70,"category":1,"storm_id":"AL121985"},"geometry":{"type":"LineString","coordinates":[[-91.5,28.6],[-92.0,29.4]]}},{"type":"Feature","properties":{"name":"Juan","year":1985,"wind_kt":75,"category":1,"storm_id":"AL121985"},"geometry":{"type":"LineString","coordinates":[[-92.0,29.4],[-93.0,29.3]]}},{"type":"Feature","properties":{"name":"Juan","year":1985,"wind_kt":75,"category":1,"storm_id":"AL121985"},"geometry":{"type":"LineString","coordinates":[[-93.0,29.3],[-92.5,28.9]]}},{"type":"Feature","properties":{"name":"Juan","year":1985,"wind_kt":75,"category":1,"storm_id":"AL121985"},"geometry":{"type":"LineString","coordinates":[[-92.5,28.9],[-91.9,29.0]]}},{"type":"Feature","properties":{"name":"Juan","year":1985,"wind_kt":60,"category":0,"storm_id":"AL121985"},"geometry":{"type":"LineString","coordinates":[[-91.9,30.3],[-92.3,30.1]]}},{"type":"Feature","properties":{"name":"Juan","year":1985,"wind_kt":60,"category":0,"storm_id":"AL121985"},"geometry":{"type":"LineString","coordinates":[[-92.3,30.1],[-92.2,29.8]]}},{"type":"Feature","properties":{"name":"Juan","year":1985,"wind_kt":55,"category":0,"storm_id":"AL121985"},"geometry":{"type":"LineString","coordinates":[[-92.2,29.8],[-92.1,29.6]]}},{"type":"Feature","properties":{"name":"Juan","year":1985,"wind_kt":55,"category":0,"storm_id":"AL121985"},"geometry":{"type":"LineString","coordinates":[[-92.1,29.6],[-91.8,29.3]]}},{"type":"Feature","properties":{"name":"Bonnie","year":1986,"wind_kt":55,"category":0,"storm_id":"AL021986"},"geometry":{"type":"LineString","coordinates":[[-91.7,27.2],[-92.2,27.7]]}},{"type":"Feature","properties":{"name":"Bonnie","year":1986,"wind_kt":65,"category":1,"storm_id":"AL021986"},"geometry":{"type":"LineString","coordinates":[[-92.2,27.7],[-92.9,28.2]]}},{"type":"Feature","properties":{"name":"Bonnie","year":1986,"wind_kt":70,"category":1,"storm_id":"AL021986"},"geometry":{"type":"LineString","coordinates":[[-92.9,28.2],[-93.7,29.0]]}},{"type":"Feature","properties":{"name":"Bonnie","year":1986,"wind_kt":75,"category":1,"storm_id":"AL021986"},"geometry":{"type":"LineString","coordinates":[[-93.7,29.0],[-94.2,29.6]]}},{"type":"Feature","properties":{"name":"Bonnie","year":1986,"wind_kt":75,"category":1,"storm_id":"AL021986"},"geometry":{"type":"LineString","coordinates":[[-94.2,29.6],[-94.3,29.9]]}},{"type":"Feature","properties":{"name":"Bonnie","year":1986,"wind_kt":65,"category":1,"storm_id":"AL021986"},"geometry":{"type":"LineString","coordinates":[[-94.3,29.9],[-94.7,30.9]]}},{"type":"Feature","properties":{"name":"Bonnie","year":1986,"wind_kt":35,"category":0,"storm_id":"AL021986"},"geometry":{"type":"LineString","coordinates":[[-94.7,30.9],[-94.7,31.8]]}},{"type":"Feature","properties":{"name":"Unnamed","year":1987,"wind_kt":35,"category":0,"storm_id":"AL031987"},"geometry":{"type":"LineString","coordinates":[[-94.0,27.3],[-94.4,28.4]]}},{"type":"Feature","properties":{"name":"Unnamed","year":1987,"wind_kt":40,"category":0,"storm_id":"AL031987"},"geometry":{"type":"LineString","coordinates":[[-94.4,28.4],[-94.5,29.5]]}},{"type":"Feature","properties":{"name":"Unnamed","year":1987,"wind_kt":40,"category":0,"storm_id":"AL031987"},"geometry":{"type":"LineString","coordinates":[[-94.5,29.5],[-94.5,30.5]]}},{"type":"Feature","properties":{"name":"Unnamed","year":1987,"wind_kt":40,"category":0,"storm_id":"AL031987"},"geometry":{"type":"LineString","coordinates":[[-94.5,30.5],[-94.1,31.3]]}},{"type":"Feature","properties":{"name":"Gilbert","year":1988,"wind_kt":115,"category":4,"storm_id":"AL081988"},"geometry":{"type":"LineString","coordinates":[[-97.0,23.9],[-97.8,24.2]]}},{"type":"Feature","properties":{"name":"Gilbert","year":1988,"wind_kt":110,"category":3,"storm_id":"AL081988"},"geometry":{"type":"LineString","coordinates":[[-97.8,24.2],[-98.2,24.4]]}},{"type":"Feature","properties":{"name":"Gilbert","year":1988,"wind_kt":80,"category":1,"storm_id":"AL081988"},"geometry":{"type":"LineString","coordinates":[[-98.2,24.4],[-99.3,24.8]]}},{"type":"Feature","properties":{"name":"Gilbert","year":1988,"wind_kt":50,"category":0,"storm_id":"AL081988"},"geometry":{"type":"LineString","coordinates":[[-99.3,24.8],[-100.5,25.0]]}},{"type":"Feature","properties":{"name":"Gilbert","year":1988,"wind_kt":35,"category":0,"storm_id":"AL081988"},"geometry":{"type":"LineString","coordinates":[[-100.5,25.0],[-101.9,25.4]]}},{"type":"Feature","properties":{"name":"Allison","year":1989,"wind_kt":35,"category":0,"storm_id":"AL021989"},"geometry":{"type":"LineString","coordinates":[[-95.8,27.8],[-95.8,28.1]]}},{"type":"Feature","properties":{"name":"Allison","year":1989,"wind_kt":35,"category":0,"storm_id":"AL021989"},"geometry":{"type":"LineString","coordinates":[[-95.8,28.1],[-95.7,28.6]]}},{"type":"Feature","properties":{"name":"Allison","year":1989,"wind_kt":40,"category":0,"storm_id":"AL021989"},"geometry":{"type":"LineString","coordinates":[[-95.7,28.6],[-95.7,28.7]]}},{"type":"Feature","properties":{"name":"Allison","year":1989,"wind_kt":40,"category":0,"storm_id":"AL021989"},"geometry":{"type":"LineString","coordinates":[[-95.7,28.7],[-95.7,29.1]]}},{"type":"Feature","properties":{"name":"Allison","year":1989,"wind_kt":45,"category":0,"storm_id":"AL021989"},"geometry":{"type":"LineString","coordinates":[[-95.7,29.1],[-95.7,29.7]]}},{"type":"Feature","properties":{"name":"Allison","year":1989,"wind_kt":45,"category":0,"storm_id":"AL021989"},"geometry":{"type":"LineString","coordinates":[[-95.7,29.7],[-95.3,30.2]]}},{"type":"Feature","properties":{"name":"Allison","year":1989,"wind_kt":35,"category":0,"storm_id":"AL021989"},"geometry":{"type":"LineString","coordinates":[[-95.3,30.2],[-94.9,30.6]]}},{"type":"Feature","properties":{"name":"Chantal","year":1989,"wind_kt":50,"category":0,"storm_id":"AL041989"},"geometry":{"type":"LineString","coordinates":[[-91.7,26.2],[-92.2,27.1]]}},{"type":"Feature","properties":{"name":"Chantal","year":1989,"wind_kt":55,"category":0,"storm_id":"AL041989"},"geometry":{"type":"LineString","coordinates":[[-92.2,27.1],[-92.8,27.9]]}},{"type":"Feature","properties":{"name":"Chantal","year":1989,"wind_kt":65,"category":1,"storm_id":"AL041989"},"geometry":{"type":"LineString","coordinates":[[-92.8,27.9],[-93.5,28.7]]}},{"type":"Feature","properties":{"name":"Chantal","year":1989,"wind_kt":70,"category":1,"storm_id":"AL041989"},"geometry":{"type":"LineString","coordinates":[[-93.5,28.7],[-94.3,29.5]]}},{"type":"Feature","properties":{"name":"Chantal","year":1989,"wind_kt":70,"category":1,"storm_id":"AL041989"},"geometry":{"type":"LineString","coordinates":[[-94.3,29.5],[-94.4,29.6]]}},{"type":"Feature","properties":{"name":"Chantal","year":1989,"wind_kt":70,"category":1,"storm_id":"AL041989"},"geometry":{"type":"LineString","coordinates":[[-94.4,29.6],[-95.2,30.2]]}},{"type":"Feature","properties":{"name":"Chantal","year":1989,"wind_kt":50,"category":0,"storm_id":"AL041989"},"geometry":{"type":"LineString","coordinates":[[-95.2,30.2],[-96.1,30.8]]}},{"type":"Feature","properties":{"name":"Chantal","year":1989,"wind_kt":35,"category":0,"storm_id":"AL041989"},"geometry":{"type":"LineString","coordinates":[[-96.1,30.8],[-96.9,31.5]]}},{"type":"Feature","properties":{"name":"Jerry","year":1989,"wind_kt":55,"category":0,"storm_id":"AL141989"},"geometry":{"type":"LineString","coordinates":[[-93.5,23.5],[-93.3,24.2]]}},{"type":"Feature","properties":{"name":"Jerry","year":1989,"wind_kt":55,"category":0,"storm_id":"AL141989"},"geometry":{"type":"LineString","coordinates":[[-93.3,24.2],[-93.1,24.6]]}},{"type":"Feature","properties":{"name":"Jerry","year":1989,"wind_kt":55,"category":0,"storm_id":"AL141989"},"geometry":{"type":"LineString","coordinates":[[-93.1,24.6],[-92.8,25.0]]}},{"type":"Feature","properties":{"name":"Jerry","year":1989,"wind_kt":55,"category":0,"storm_id":"AL141989"},"geometry":{"type":"LineString","coordinates":[[-92.8,25.0],[-93.1,25.8]]}},{"type":"Feature","properties":{"name":"Jerry","year":1989,"wind_kt":55,"category":0,"storm_id":"AL141989"},"geometry":{"type":"LineString","coordinates":[[-93.1,25.8],[-93.4,26.5]]}},{"type":"Feature","properties":{"name":"Jerry","year":1989,"wind_kt":55,"category":0,"storm_id":"AL141989"},"geometry":{"type":"LineString","coordinates":[[-93.4,26.5],[-94.0,27.3]]}},{"type":"Feature","properties":{"name":"Jerry","year":1989,"wind_kt":60,"category":0,"storm_id":"AL141989"},"geometry":{"type":"LineString","coordinates":[[-94.0,27.3],[-94.6,28.1]]}},{"type":"Feature","properties":{"name":"Jerry","year":1989,"wind_kt":65,"category":1,"storm_id":"AL141989"},"geometry":{"type":"LineString","coordinates":[[-94.6,28.1],[-94.8,28.6]]}},{"type":"Feature","properties":{"name":"Jerry","year":1989,"wind_kt":70,"category":1,"storm_id":"AL141989"},"geometry":{"type":"LineString","coordinates":[[-94.8,28.6],[-95.0,29.1]]}},{"type":"Feature","properties":{"name":"Jerry","year":1989,"wind_kt":75,"category":1,"storm_id":"AL141989"},"geometry":{"type":"LineString","coordinates":[[-95.0,29.1],[-95.0,29.2]]}},{"type":"Feature","properties":{"name":"Jerry","year":1989,"wind_kt":75,"category":1,"storm_id":"AL141989"},"geometry":{"type":"LineString","coordinates":[[-95.0,29.2],[-94.9,30.4]]}},{"type":"Feature","properties":{"name":"Jerry","year":1989,"wind_kt":35,"category":0,"storm_id":"AL141989"},"geometry":{"type":"LineString","coordinates":[[-94.9,30.4],[-94.5,32.0]]}},{"type":"Feature","properties":{"name":"Arlene","year":1993,"wind_kt":35,"category":0,"storm_id":"AL021993"},"geometry":{"type":"LineString","coordinates":[[-95.9,25.9],[-96.3,26.0]]}},{"type":"Feature","properties":{"name":"Arlene","year":1993,"wind_kt":35,"category":0,"storm_id":"AL021993"},"geometry":{"type":"LineString","coordinates":[[-96.3,26.0],[-96.7,26.3]]}},{"type":"Feature","properties":{"name":"Arlene","year":1993,"wind_kt":35,"category":0,"storm_id":"AL021993"},"geometry":{"type":"LineString","coordinates":[[-96.7,26.3],[-97.2,27.0]]}},{"type":"Feature","properties":{"name":"Arlene","year":1993,"wind_kt":35,"category":0,"storm_id":"AL021993"},"geometry":{"type":"LineString","coordinates":[[-97.2,27.0],[-97.4,27.1]]}},{"type":"Feature","properties":{"name":"Arlene","year":1993,"wind_kt":35,"category":0,"storm_id":"AL021993"},"geometry":{"type":"LineString","coordinates":[[-97.4,27.1],[-97.8,27.2]]}},{"type":"Feature","properties":{"name":"Dean","year":1995,"wind_kt":35,"category":0,"storm_id":"AL041995"},"geometry":{"type":"LineString","coordinates":[[-94.0,28.6],[-95.0,29.0]]}},{"type":"Feature","properties":{"name":"Dean","year":1995,"wind_kt":40,"category":0,"storm_id":"AL041995"},"geometry":{"type":"LineString","coordinates":[[-95.0,29.0],[-95.3,29.2]]}},{"type":"Feature","properties":{"name":"Dean","year":1995,"wind_kt":40,"category":0,"storm_id":"AL041995"},"geometry":{"type":"LineString","coordinates":[[-95.3,29.2],[-95.5,29.5]]}},{"type":"Feature","properties":{"name":"Charley","year":1998,"wind_kt":40,"category":0,"storm_id":"AL031998"},"geometry":{"type":"LineString","coordinates":[[-94.5,26.0],[-95.4,26.8]]}},{"type":"Feature","properties":{"name":"Charley","year":1998,"wind_kt":45,"category":0,"storm_id":"AL031998"},"geometry":{"type":"LineString","coordinates":[[-95.4,26.8],[-96.5,27.5]]}},{"type":"Feature","properties":{"name":"Charley","year":1998,"wind_kt":60,"category":0,"storm_id":"AL031998"},"geometry":{"type":"LineString","coordinates":[[-96.5,27.5],[-97.1,27.8]]}},{"type":"Feature","properties":{"name":"Charley","year":1998,"wind_kt":40,"category":0,"storm_id":"AL031998"},"geometry":{"type":"LineString","coordinates":[[-97.1,27.8],[-97.4,27.9]]}},{"type":"Feature","properties":{"name":"Charley","year":1998,"wind_kt":35,"category":0,"storm_id":"AL031998"},"geometry":{"type":"LineString","coordinates":[[-97.4,27.9],[-98.1,28.3]]}},{"type":"Feature","properties":{"name":"Earl","year":1998,"wind_kt":35,"category":0,"storm_id":"AL051998"},"geometry":{"type":"LineString","coordinates":[[-93.7,23.2],[-93.4,24.1]]}},{"type":"Feature","properties":{"name":"Earl","year":1998,"wind_kt":40,"category":0,"storm_id":"AL051998"},"geometry":{"type":"LineString","coordinates":[[-93.4,24.1],[-93.1,25.0]]}},{"type":"Feature","properties":{"name":"Earl","year":1998,"wind_kt":45,"category":0,"storm_id":"AL051998"},"geometry":{"type":"LineString","coordinates":[[-93.1,25.0],[-92.5,25.8]]}},{"type":"Feature","properties":{"name":"Earl","year":1998,"wind_kt":50,"category":0,"storm_id":"AL051998"},"geometry":{"type":"LineString","coordinates":[[-92.5,25.8],[-91.5,26.8]]}},{"type":"Feature","properties":{"name":"Frances","year":1998,"wind_kt":35,"category":0,"storm_id":"AL061998"},"geometry":{"type":"LineString","coordinates":[[-95.5,24.2],[-95.6,23.5]]}},{"type":"Feature","properties":{"name":"Frances","year":1998,"wind_kt":40,"category":0,"storm_id":"AL061998"},"geometry":{"type":"LineString","coordinates":[[-95.6,23.5],[-95.0,24.2]]}},{"type":"Feature","properties":{"name":"Frances","year":1998,"wind_kt":40,"category":0,"storm_id":"AL061998"},"geometry":{"type":"LineString","coordinates":[[-95.0,24.2],[-95.2,25.3]]}},{"type":"Feature","properties":{"name":"Frances","year":1998,"wind_kt":45,"category":0,"storm_id":"AL061998"},"geometry":{"type":"LineString","coordinates":[[-95.2,25.3],[-95.2,26.6]]}},{"type":"Feature","properties":{"name":"Frances","year":1998,"wind_kt":45,"category":0,"storm_id":"AL061998"},"geometry":{"type":"LineString","coordinates":[[-95.2,26.6],[-95.9,27.2]]}},{"type":"Feature","properties":{"name":"Frances","year":1998,"wind_kt":55,"category":0,"storm_id":"AL061998"},"geometry":{"type":"LineString","coordinates":[[-95.9,27.2],[-96.9,28.2]]}},{"type":"Feature","properties":{"name":"Frances","year":1998,"wind_kt":45,"category":0,"storm_id":"AL061998"},"geometry":{"type":"LineString","coordinates":[[-96.9,28.2],[-97.6,28.4]]}},{"type":"Feature","properties":{"name":"Frances","year":1998,"wind_kt":40,"category":0,"storm_id":"AL061998"},"geometry":{"type":"LineString","coordinates":[[-97.6,28.4],[-97.0,28.5]]}},{"type":"Feature","properties":{"name":"Frances","year":1998,"wind_kt":35,"category":0,"storm_id":"AL061998"},"geometry":{"type":"LineString","coordinates":[[-97.0,28.5],[-96.9,29.3]]}},{"type":"Feature","properties":{"name":"Bret","year":1999,"wind_kt":90,"category":2,"storm_id":"AL031999"},"geometry":{"type":"LineString","coordinates":[[-95.0,23.8],[-95.1,24.7]]}},{"type":"Feature","properties":{"name":"Bret","year":1999,"wind_kt":120,"category":4,"storm_id":"AL031999"},"geometry":{"type":"LineString","coordinates":[[-95.1,24.7],[-95.5,25.5]]}},{"type":"Feature","properties":{"name":"Bret","year":1999,"wind_kt":125,"category":4,"storm_id":"AL031999"},"geometry":{"type":"LineString","coordinates":[[-95.5,25.5],[-96.1,26.2]]}},{"type":"Feature","properties":{"name":"Bret","year":1999,"wind_kt":125,"category":4,"storm_id":"AL031999"},"geometry":{"type":"LineString","coordinates":[[-96.1,26.2],[-96.8,26.6]]}},{"type":"Feature","properties":{"name":"Bret","year":1999,"wind_kt":120,"category":4,"storm_id":"AL031999"},"geometry":{"type":"LineString","coordinates":[[-96.8,26.6],[-97.4,26.9]]}},{"type":"Feature","properties":{"name":"Bret","year":1999,"wind_kt":100,"category":3,"storm_id":"AL031999"},"geometry":{"type":"LineString","coordinates":[[-97.4,26.9],[-97.9,27.0]]}},{"type":"Feature","properties":{"name":"Bret","year":1999,"wind_kt":80,"category":1,"storm_id":"AL031999"},"geometry":{"type":"LineString","coordinates":[[-97.9,27.0],[-98.3,27.3]]}},{"type":"Feature","properties":{"name":"Bret","year":1999,"wind_kt":60,"category":0,"storm_id":"AL031999"},"geometry":{"type":"LineString","coordinates":[[-98.3,27.3],[-98.8,27.6]]}},{"type":"Feature","properties":{"name":"Bret","year":1999,"wind_kt":35,"category":0,"storm_id":"AL031999"},"geometry":{"type":"LineString","coordinates":[[-98.8,27.6],[-99.5,28.0]]}},{"type":"Feature","properties":{"name":"Beryl","year":2000,"wind_kt":45,"category":0,"storm_id":"AL052000"},"geometry":{"type":"LineString","coordinates":[[-96.3,23.9],[-97.0,24.1]]}},{"type":"Feature","properties":{"name":"Beryl","year":2000,"wind_kt":45,"category":0,"storm_id":"AL052000"},"geometry":{"type":"LineString","coordinates":[[-97.0,24.1],[-97.7,24.5]]}},{"type":"Feature","properties":{"name":"Beryl","year":2000,"wind_kt":45,"category":0,"storm_id":"AL052000"},"geometry":{"type":"LineString","coordinates":[[-97.7,24.5],[-98.6,24.9]]}},{"type":"Feature","properties":{"name":"Allison","year":2001,"wind_kt":40,"category":0,"storm_id":"AL012001"},"geometry":{"type":"LineString","coordinates":[[-95.0,27.5],[-95.3,28.5]]}},{"type":"Feature","properties":{"name":"Allison","year":2001,"wind_kt":50,"category":0,"storm_id":"AL012001"},"geometry":{"type":"LineString","coordinates":[[-95.3,28.5],[-95.3,28.9]]}},{"type":"Feature","properties":{"name":"Allison","year":2001,"wind_kt":45,"category":0,"storm_id":"AL012001"},"geometry":{"type":"LineString","coordinates":[[-95.3,28.9],[-95.3,29.3]]}},{"type":"Feature","properties":{"name":"Allison","year":2001,"wind_kt":45,"category":0,"storm_id":"AL012001"},"geometry":{"type":"LineString","coordinates":[[-95.3,29.3],[-95.2,30.1]]}},{"type":"Feature","properties":{"name":"Fay","year":2002,"wind_kt":35,"category":0,"storm_id":"AL062002"},"geometry":{"type":"LineString","coordinates":[[-93.9,27.8],[-94.1,27.6]]}},{"type":"Feature","properties":{"name":"Fay","year":2002,"wind_kt":45,"category":0,"storm_id":"AL062002"},"geometry":{"type":"LineString","coordinates":[[-94.1,27.6],[-94.5,27.7]]}},{"type":"Feature","properties":{"name":"Fay","year":2002,"wind_kt":50,"category":0,"storm_id":"AL062002"},"geometry":{"type":"LineString","coordinates":[[-94.5,27.7],[-94.7,27.8]]}},{"type":"Feature","properties":{"name":"Fay","year":2002,"wind_kt":50,"category":0,"storm_id":"AL062002"},"geometry":{"type":"LineString","coordinates":[[-94.7,27.8],[-95.0,27.9]]}},{"type":"Feature","properties":{"name":"Fay","year":2002,"wind_kt":50,"category":0,"storm_id":"AL062002"},"geometry":{"type":"LineString","coordinates":[[-95.0,27.9],[-95.6,28.1]]}},{"type":"Feature","properties":{"name":"Fay","year":2002,"wind_kt":50,"category":0,"storm_id":"AL062002"},"geometry":{"type":"LineString","coordinates":[[-95.6,28.1],[-96.3,28.5]]}},{"type":"Feature","properties":{"name":"Fay","year":2002,"wind_kt":50,"category":0,"storm_id":"AL062002"},"geometry":{"type":"LineString","coordinates":[[-96.3,28.5],[-96.9,29.1]]}},{"type":"Feature","properties":{"name":"Lili","year":2002,"wind_kt":105,"category":3,"storm_id":"AL132002"},"geometry":{"type":"LineString","coordinates":[[-91.4,28.1],[-92.1,29.2]]}},{"type":"Feature","properties":{"name":"Lili","year":2002,"wind_kt":80,"category":1,"storm_id":"AL132002"},"geometry":{"type":"LineString","coordinates":[[-92.1,29.2],[-92.2,29.5]]}},{"type":"Feature","properties":{"name":"Lili","year":2002,"wind_kt":80,"category":1,"storm_id":"AL132002"},"geometry":{"type":"LineString","coordinates":[[-92.2,29.5],[-92.4,30.5]]}},{"type":"Feature","properties":{"name":"Lili","year":2002,"wind_kt":60,"category":0,"storm_id":"AL132002"},"geometry":{"type":"LineString","coordinates":[[-92.4,30.5],[-92.1,31.9]]}},{"type":"Feature","properties":{"name":"Lili","year":2002,"wind_kt":40,"category":0,"storm_id":"AL132002"},"geometry":{"type":"LineString","coordinates":[[-92.1,31.9],[-91.4,33.5]]}},{"type":"Feature","properties":{"name":"Claudette","year":2003,"wind_kt":45,"category":0,"storm_id":"AL042003"},"geometry":{"type":"LineString","coordinates":[[-91.9,24.9],[-92.1,25.1]]}},{"type":"Feature","properties":{"name":"Claudette","year":2003,"wind_kt":50,"category":0,"storm_id":"AL042003"},"geometry":{"type":"LineString","coordinates":[[-92.1,25.1],[-92.2,25.3]]}},{"type":"Feature","properties":{"name":"Claudette","year":2003,"wind_kt":50,"category":0,"storm_id":"AL042003"},"geometry":{"type":"LineString","coordinates":[[-92.2,25.3],[-92.2,25.6]]}},{"type":"Feature","properties":{"name":"Claudette","year":2003,"wind_kt":55,"category":0,"storm_id":"AL042003"},"geometry":{"type":"LineString","coordinates":[[-92.2,25.6],[-92.3,26.0]]}},{"type":"Feature","properties":{"name":"Claudette","year":2003,"wind_kt":55,"category":0,"storm_id":"AL042003"},"geometry":{"type":"LineString","coordinates":[[-92.3,26.0],[-92.6,26.7]]}},{"type":"Feature","properties":{"name":"Claudette","year":2003,"wind_kt":55,"category":0,"storm_id":"AL042003"},"geometry":{"type":"LineString","coordinates":[[-92.6,26.7],[-93.0,27.3]]}},{"type":"Feature","properties":{"name":"Claudette","year":2003,"wind_kt":60,"category":0,"storm_id":"AL042003"},"geometry":{"type":"LineString","coordinates":[[-93.0,27.3],[-93.6,27.7]]}},{"type":"Feature","properties":{"name":"Claudette","year":2003,"wind_kt":60,"category":0,"storm_id":"AL042003"},"geometry":{"type":"LineString","coordinates":[[-93.6,27.7],[-94.6,27.9]]}},{"type":"Feature","properties":{"name":"Claudette","year":2003,"wind_kt":65,"category":1,"storm_id":"AL042003"},"geometry":{"type":"LineString","coordinates":[[-94.6,27.9],[-95.5,28.3]]}},{"type":"Feature","properties":{"name":"Claudette","year":2003,"wind_kt":75,"category":1,"storm_id":"AL042003"},"geometry":{"type":"LineString","coordinates":[[-95.5,28.3],[-96.2,28.3]]}},{"type":"Feature","properties":{"name":"Claudette","year":2003,"wind_kt":80,"category":1,"storm_id":"AL042003"},"geometry":{"type":"LineString","coordinates":[[-96.2,28.3],[-96.9,28.6]]}},{"type":"Feature","properties":{"name":"Claudette","year":2003,"wind_kt":70,"category":1,"storm_id":"AL042003"},"geometry":{"type":"LineString","coordinates":[[-96.9,28.6],[-98.2,28.5]]}},{"type":"Feature","properties":{"name":"Claudette","year":2003,"wind_kt":50,"category":0,"storm_id":"AL042003"},"geometry":{"type":"LineString","coordinates":[[-98.2,28.5],[-99.4,28.5]]}},{"type":"Feature","properties":{"name":"Claudette","year":2003,"wind_kt":40,"category":0,"storm_id":"AL042003"},"geometry":{"type":"LineString","coordinates":[[-99.4,28.5],[-100.8,28.8]]}},{"type":"Feature","properties":{"name":"Claudette","year":2003,"wind_kt":35,"category":0,"storm_id":"AL042003"},"geometry":{"type":"LineString","coordinates":[[-100.8,28.8],[-102.6,29.3]]}},{"type":"Feature","properties":{"name":"Claudette","year":2003,"wind_kt":35,"category":0,"storm_id":"AL042003"},"geometry":{"type":"LineString","coordinates":[[-102.6,29.3],[-104.3,29.9]]}},{"type":"Feature","properties":{"name":"Erika","year":2003,"wind_kt":45,"category":0,"storm_id":"AL082003"},"geometry":{"type":"LineString","coordinates":[[-90.5,26.1],[-92.5,26.0]]}},{"type":"Feature","properties":{"name":"Erika","year":2003,"wind_kt":50,"category":0,"storm_id":"AL082003"},"geometry":{"type":"LineString","coordinates":[[-92.5,26.0],[-94.4,25.9]]}},{"type":"Feature","properties":{"name":"Erika","year":2003,"wind_kt":55,"category":0,"storm_id":"AL082003"},"geometry":{"type":"LineString","coordinates":[[-94.4,25.9],[-96.2,25.6]]}},{"type":"Feature","properties":{"name":"Erika","year":2003,"wind_kt":60,"category":0,"storm_id":"AL082003"},"geometry":{"type":"LineString","coordinates":[[-96.2,25.6],[-97.4,25.3]]}},{"type":"Feature","properties":{"name":"Erika","year":2003,"wind_kt":65,"category":1,"storm_id":"AL082003"},"geometry":{"type":"LineString","coordinates":[[-97.4,25.3],[-97.6,25.2]]}},{"type":"Feature","properties":{"name":"Erika","year":2003,"wind_kt":65,"category":1,"storm_id":"AL082003"},"geometry":{"type":"LineString","coordinates":[[-97.6,25.2],[-98.9,24.8]]}},{"type":"Feature","properties":{"name":"Erika","year":2003,"wind_kt":35,"category":0,"storm_id":"AL082003"},"geometry":{"type":"LineString","coordinates":[[-98.9,24.8],[-100.3,24.7]]}},{"type":"Feature","properties":{"name":"Grace","year":2003,"wind_kt":35,"category":0,"storm_id":"AL112003"},"geometry":{"type":"LineString","coordinates":[[-93.3,24.9],[-94.3,25.8]]}},{"type":"Feature","properties":{"name":"Grace","year":2003,"wind_kt":35,"category":0,"storm_id":"AL112003"},"geometry":{"type":"LineString","coordinates":[[-94.3,25.8],[-94.9,27.2]]}},{"type":"Feature","properties":{"name":"Grace","year":2003,"wind_kt":35,"category":0,"storm_id":"AL112003"},"geometry":{"type":"LineString","coordinates":[[-94.9,27.2],[-95.1,29.0]]}},{"type":"Feature","properties":{"name":"Grace","year":2003,"wind_kt":35,"category":0,"storm_id":"AL112003"},"geometry":{"type":"LineString","coordinates":[[-95.1,29.0],[-95.2,29.4]]}},{"type":"Feature","properties":{"name":"Grace","year":2003,"wind_kt":35,"category":0,"storm_id":"AL112003"},"geometry":{"type":"LineString","coordinates":[[-95.2,29.4],[-95.6,30.1]]}},{"type":"Feature","properties":{"name":"Ivan","year":2004,"wind_kt":35,"category":0,"storm_id":"AL092004"},"geometry":{"type":"LineString","coordinates":[[-91.0,27.9],[-92.2,28.9]]}},{"type":"Feature","properties":{"name":"Ivan","year":2004,"wind_kt":50,"category":0,"storm_id":"AL092004"},"geometry":{"type":"LineString","coordinates":[[-92.2,28.9],[-92.7,29.2]]}},{"type":"Feature","properties":{"name":"Ivan","year":2004,"wind_kt":40,"category":0,"storm_id":"AL092004"},"geometry":{"type":"LineString","coordinates":[[-92.7,29.2],[-93.2,29.6]]}},{"type":"Feature","properties":{"name":"Matthew","year":2004,"wind_kt":35,"category":0,"storm_id":"AL142004"},"geometry":{"type":"LineString","coordinates":[[-94.2,24.1],[-93.7,24.6]]}},{"type":"Feature","properties":{"name":"Matthew","year":2004,"wind_kt":40,"category":0,"storm_id":"AL142004"},"geometry":{"type":"LineString","coordinates":[[-93.7,24.6],[-93.2,25.3]]}},{"type":"Feature","properties":{"name":"Matthew","year":2004,"wind_kt":35,"category":0,"storm_id":"AL142004"},"geometry":{"type":"LineString","coordinates":[[-93.2,25.3],[-92.8,26.3]]}},{"type":"Feature","properties":{"name":"Matthew","year":2004,"wind_kt":35,"category":0,"storm_id":"AL142004"},"geometry":{"type":"LineString","coordinates":[[-92.8,26.3],[-92.0,26.8]]}},{"type":"Feature","properties":{"name":"Matthew","year":2004,"wind_kt":40,"category":0,"storm_id":"AL142004"},"geometry":{"type":"LineString","coordinates":[[-92.0,26.8],[-91.4,27.3]]}},{"type":"Feature","properties":{"name":"Emily","year":2005,"wind_kt":80,"category":1,"storm_id":"AL052005"},"geometry":{"type":"LineString","coordinates":[[-94.0,23.7],[-95.1,24.1]]}},{"type":"Feature","properties":{"name":"Emily","year":2005,"wind_kt":85,"category":2,"storm_id":"AL052005"},"geometry":{"type":"LineString","coordinates":[[-95.1,24.1],[-96.1,24.4]]}},{"type":"Feature","properties":{"name":"Emily","year":2005,"wind_kt":110,"category":3,"storm_id":"AL052005"},"geometry":{"type":"LineString","coordinates":[[-96.1,24.4],[-96.9,24.6]]}},{"type":"Feature","properties":{"name":"Emily","year":2005,"wind_kt":110,"category":3,"storm_id":"AL052005"},"geometry":{"type":"LineString","coordinates":[[-96.9,24.6],[-97.6,24.8]]}},{"type":"Feature","properties":{"name":"Emily","year":2005,"wind_kt":110,"category":3,"storm_id":"AL052005"},"geometry":{"type":"LineString","coordinates":[[-97.6,24.8],[-98.7,25.0]]}},{"type":"Feature","properties":{"name":"Emily","year":2005,"wind_kt":70,"category":1,"storm_id":"AL052005"},"geometry":{"type":"LineString","coordinates":[[-98.7,25.0],[-99.7,25.0]]}},{"type":"Feature","properties":{"name":"Emily","year":2005,"wind_kt":45,"category":0,"storm_id":"AL052005"},"geometry":{"type":"LineString","coordinates":[[-99.7,25.0],[-100.5,25.0]]}},{"type":"Feature","properties":{"name":"Rita","year":2005,"wind_kt":115,"category":4,"storm_id":"AL182005"},"geometry":{"type":"LineString","coordinates":[[-91.5,27.1],[-92.3,27.8]]}},{"type":"Feature","properties":{"name":"Rita","year":2005,"wind_kt":110,"category":3,"storm_id":"AL182005"},"geometry":{"type":"LineString","coordinates":[[-92.3,27.8],[-93.0,28.6]]}},{"type":"Feature","properties":{"name":"Rita","year":2005,"wind_kt":105,"category":3,"storm_id":"AL182005"},"geometry":{"type":"LineString","coordinates":[[-93.0,28.6],[-93.6,29.4]]}},{"type":"Feature","properties":{"name":"Rita","year":2005,"wind_kt":100,"category":3,"storm_id":"AL182005"},"geometry":{"type":"LineString","coordinates":[[-93.6,29.4],[-93.7,29.7]]}},{"type":"Feature","properties":{"name":"Rita","year":2005,"wind_kt":100,"category":3,"storm_id":"AL182005"},"geometry":{"type":"LineString","coordinates":[[-93.7,29.7],[-94.1,30.5]]}},{"type":"Feature","properties":{"name":"Rita","year":2005,"wind_kt":65,"category":1,"storm_id":"AL182005"},"geometry":{"type":"LineString","coordinates":[[-94.1,30.5],[-94.1,31.6]]}},{"type":"Feature","properties":{"name":"Rita","year":2005,"wind_kt":45,"category":0,"storm_id":"AL182005"},"geometry":{"type":"LineString","coordinates":[[-94.1,31.6],[-94.0,32.7]]}},{"type":"Feature","properties":{"name":"Rita","year":2005,"wind_kt":35,"category":0,"storm_id":"AL182005"},"geometry":{"type":"LineString","coordinates":[[-94.0,32.7],[-93.6,33.7]]}},{"type":"Feature","properties":{"name":"Erin","year":2007,"wind_kt":35,"category":0,"storm_id":"AL052007"},"geometry":{"type":"LineString","coordinates":[[-94.0,25.8],[-95.2,26.3]]}},{"type":"Feature","properties":{"name":"Erin","year":2007,"wind_kt":35,"category":0,"storm_id":"AL052007"},"geometry":{"type":"LineString","coordinates":[[-95.2,26.3],[-96.2,27.2]]}},{"type":"Feature","properties":{"name":"Erin","year":2007,"wind_kt":35,"category":0,"storm_id":"AL052007"},"geometry":{"type":"LineString","coordinates":[[-96.2,27.2],[-96.9,28.0]]}},{"type":"Feature","properties":{"name":"Erin","year":2007,"wind_kt":50,"category":0,"storm_id":"AL052007"},"geometry":{"type":"LineString","coordinates":[[-98.8,35.6],[-97.7,35.6]]}},{"type":"Feature","properties":{"name":"Erin","year":2007,"wind_kt":35,"category":0,"storm_id":"AL052007"},"geometry":{"type":"LineString","coordinates":[[-97.7,35.6],[-96.5,35.9]]}},{"type":"Feature","properties":{"name":"Humberto","year":2007,"wind_kt":35,"category":0,"storm_id":"AL092007"},"geometry":{"type":"LineString","coordinates":[[-95.1,27.8],[-95.0,28.3]]}},{"type":"Feature","properties":{"name":"Humberto","year":2007,"wind_kt":45,"category":0,"storm_id":"AL092007"},"geometry":{"type":"LineString","coordinates":[[-95.0,28.3],[-94.8,28.8]]}},{"type":"Feature","properties":{"name":"Humberto","year":2007,"wind_kt":55,"category":0,"storm_id":"AL092007"},"geometry":{"type":"LineString","coordinates":[[-94.8,28.8],[-94.4,29.5]]}},{"type":"Feature","properties":{"name":"Humberto","year":2007,"wind_kt":80,"category":1,"storm_id":"AL092007"},"geometry":{"type":"LineString","coordinates":[[-94.4,29.5],[-94.3,29.6]]}},{"type":"Feature","properties":{"name":"Humberto","year":2007,"wind_kt":80,"category":1,"storm_id":"AL092007"},"geometry":{"type":"LineString","coordinates":[[-94.3,29.6],[-93.6,30.3]]}},{"type":"Feature","properties":{"name":"Humberto","year":2007,"wind_kt":65,"category":1,"storm_id":"AL092007"},"geometry":{"type":"LineString","coordinates":[[-93.6,30.3],[-92.9,31.0]]}},{"type":"Feature","properties":{"name":"Humberto","year":2007,"wind_kt":35,"category":0,"storm_id":"AL092007"},"geometry":{"type":"LineString","coordinates":[[-92.9,31.0],[-92.3,31.7]]}},{"type":"Feature","properties":{"name":"Dolly","year":2008,"wind_kt":55,"category":0,"storm_id":"AL042008"},"geometry":{"type":"LineString","coordinates":[[-94.1,23.7],[-94.9,24.3]]}},{"type":"Feature","properties":{"name":"Dolly","year":2008,"wind_kt":60,"category":0,"storm_id":"AL042008"},"geometry":{"type":"LineString","coordinates":[[-94.9,24.3],[-95.7,24.9]]}},{"type":"Feature","properties":{"name":"Dolly","year":2008,"wind_kt":65,"category":1,"storm_id":"AL042008"},"geometry":{"type":"LineString","coordinates":[[-95.7,24.9],[-96.2,25.4]]}},{"type":"Feature","properties":{"name":"Dolly","year":2008,"wind_kt":70,"category":1,"storm_id":"AL042008"},"geometry":{"type":"LineString","coordinates":[[-96.2,25.4],[-96.7,25.9]]}},{"type":"Feature","properties":{"name":"Dolly","year":2008,"wind_kt":85,"category":2,"storm_id":"AL042008"},"geometry":{"type":"LineString","coordinates":[[-96.7,25.9],[-96.8,26.0]]}},{"type":"Feature","properties":{"name":"Dolly","year":2008,"wind_kt":85,"category":2,"storm_id":"AL042008"},"geometry":{"type":"LineString","coordinates":[[-96.8,26.0],[-97.2,26.4]]}},{"type":"Feature","properties":{"name":"Dolly","year":2008,"wind_kt":75,"category":1,"storm_id":"AL042008"},"geometry":{"type":"LineString","coordinates":[[-97.2,26.4],[-97.2,26.4]]}},{"type":"Feature","properties":{"name":"Dolly","year":2008,"wind_kt":75,"category":1,"storm_id":"AL042008"},"geometry":{"type":"LineString","coordinates":[[-97.2,26.4],[-97.4,26.4]]}},{"type":"Feature","properties":{"name":"Dolly","year":2008,"wind_kt":70,"category":1,"storm_id":"AL042008"},"geometry":{"type":"LineString","coordinates":[[-97.4,26.4],[-97.8,26.5]]}},{"type":"Feature","properties":{"name":"Dolly","year":2008,"wind_kt":65,"category":1,"storm_id":"AL042008"},"geometry":{"type":"LineString","coordinates":[[-97.8,26.5],[-98.3,26.7]]}},{"type":"Feature","properties":{"name":"Dolly","year":2008,"wind_kt":55,"category":0,"storm_id":"AL042008"},"geometry":{"type":"LineString","coordinates":[[-98.3,26.7],[-98.9,27.2]]}},{"type":"Feature","properties":{"name":"Dolly","year":2008,"wind_kt":45,"category":0,"storm_id":"AL042008"},"geometry":{"type":"LineString","coordinates":[[-98.9,27.2],[-100.0,27.9]]}},{"type":"Feature","properties":{"name":"Dolly","year":2008,"wind_kt":35,"category":0,"storm_id":"AL042008"},"geometry":{"type":"LineString","coordinates":[[-100.0,27.9],[-101.4,28.3]]}},{"type":"Feature","properties":{"name":"Edouard","year":2008,"wind_kt":50,"category":0,"storm_id":"AL052008"},"geometry":{"type":"LineString","coordinates":[[-91.7,28.5],[-92.9,29.0]]}},{"type":"Feature","properties":{"name":"Edouard","year":2008,"wind_kt":55,"category":0,"storm_id":"AL052008"},"geometry":{"type":"LineString","coordinates":[[-92.9,29.0],[-94.2,29.6]]}},{"type":"Feature","properties":{"name":"Edouard","year":2008,"wind_kt":55,"category":0,"storm_id":"AL052008"},"geometry":{"type":"LineString","coordinates":[[-94.2,29.6],[-94.8,30.0]]}},{"type":"Feature","properties":{"name":"Edouard","year":2008,"wind_kt":40,"category":0,"storm_id":"AL052008"},"geometry":{"type":"LineString","coordinates":[[-94.8,30.0],[-95.7,30.6]]}},{"type":"Feature","properties":{"name":"Gustav","year":2008,"wind_kt":85,"category":2,"storm_id":"AL072008"},"geometry":{"type":"LineString","coordinates":[[-91.4,29.8],[-92.3,30.7]]}},{"type":"Feature","properties":{"name":"Gustav","year":2008,"wind_kt":60,"category":0,"storm_id":"AL072008"},"geometry":{"type":"LineString","coordinates":[[-92.3,30.7],[-93.1,31.4]]}},{"type":"Feature","properties":{"name":"Gustav","year":2008,"wind_kt":40,"category":0,"storm_id":"AL072008"},"geometry":{"type":"LineString","coordinates":[[-93.1,31.4],[-93.5,32.1]]}},{"type":"Feature","properties":{"name":"Ike","year":2008,"wind_kt":90,"category":2,"storm_id":"AL092008"},"geometry":{"type":"LineString","coordinates":[[-91.1,26.4],[-92.2,26.9]]}},{"type":"Feature","properties":{"name":"Ike","year":2008,"wind_kt":95,"category":2,"storm_id":"AL092008"},"geometry":{"type":"LineString","coordinates":[[-92.2,26.9],[-93.2,27.5]]}},{"type":"Feature","properties":{"name":"Ike","year":2008,"wind_kt":95,"category":2,"storm_id":"AL092008"},"geometry":{"type":"LineString","coordinates":[[-93.2,27.5],[-94.0,28.3]]}},{"type":"Feature","properties":{"name":"Ike","year":2008,"wind_kt":95,"category":2,"storm_id":"AL092008"},"geometry":{"type":"LineString","coordinates":[[-94.0,28.3],[-94.6,29.1]]}},{"type":"Feature","properties":{"name":"Ike","year":2008,"wind_kt":95,"category":2,"storm_id":"AL092008"},"geometry":{"type":"LineString","coordinates":[[-94.6,29.1],[-94.7,29.3]]}},{"type":"Feature","properties":{"name":"Ike","year":2008,"wind_kt":95,"category":2,"storm_id":"AL092008"},"geometry":{"type":"LineString","coordinates":[[-94.7,29.3],[-95.2,30.3]]}},{"type":"Feature","properties":{"name":"Ike","year":2008,"wind_kt":85,"category":2,"storm_id":"AL092008"},"geometry":{"type":"LineString","coordinates":[[-95.2,30.3],[-95.3,31.7]]}},{"type":"Feature","properties":{"name":"Ike","year":2008,"wind_kt":50,"category":0,"storm_id":"AL092008"},"geometry":{"type":"LineString","coordinates":[[-95.3,31.7],[-94.9,33.5]]}},{"type":"Feature","properties":{"name":"Ike","year":2008,"wind_kt":35,"category":0,"storm_id":"AL092008"},"geometry":{"type":"LineString","coordinates":[[-94.9,33.5],[-93.7,35.5]]}},{"type":"Feature","properties":{"name":"Ike","year":2008,"wind_kt":35,"category":0,"storm_id":"AL092008"},"geometry":{"type":"LineString","coordinates":[[-93.7,35.5],[-91.0,37.6]]}},{"type":"Feature","properties":{"name":"Alex","year":2010,"wind_kt":75,"category":1,"storm_id":"AL012010"},"geometry":{"type":"LineString","coordinates":[[-95.2,23.5],[-95.5,24.0]]}},{"type":"Feature","properties":{"name":"Alex","year":2010,"wind_kt":75,"category":1,"storm_id":"AL012010"},"geometry":{"type":"LineString","coordinates":[[-95.5,24.0],[-96.2,24.3]]}},{"type":"Feature","properties":{"name":"Alex","year":2010,"wind_kt":80,"category":1,"storm_id":"AL012010"},"geometry":{"type":"LineString","coordinates":[[-96.2,24.3],[-97.3,24.3]]}},{"type":"Feature","properties":{"name":"Alex","year":2010,"wind_kt":90,"category":2,"storm_id":"AL012010"},"geometry":{"type":"LineString","coordinates":[[-97.3,24.3],[-97.7,24.2]]}},{"type":"Feature","properties":{"name":"Alex","year":2010,"wind_kt":95,"category":2,"storm_id":"AL012010"},"geometry":{"type":"LineString","coordinates":[[-97.7,24.2],[-98.4,24.1]]}},{"type":"Feature","properties":{"name":"Alex","year":2010,"wind_kt":75,"category":1,"storm_id":"AL012010"},"geometry":{"type":"LineString","coordinates":[[-98.4,24.1],[-99.5,23.5]]}},{"type":"Feature","properties":{"name":"Hermine","year":2010,"wind_kt":45,"category":0,"storm_id":"AL102010"},"geometry":{"type":"LineString","coordinates":[[-95.6,23.0],[-96.5,24.0]]}},{"type":"Feature","properties":{"name":"Hermine","year":2010,"wind_kt":50,"category":0,"storm_id":"AL102010"},"geometry":{"type":"LineString","coordinates":[[-96.5,24.0],[-97.2,24.9]]}},{"type":"Feature","properties":{"name":"Hermine","year":2010,"wind_kt":55,"category":0,"storm_id":"AL102010"},"geometry":{"type":"LineString","coordinates":[[-97.2,24.9],[-97.4,25.3]]}},{"type":"Feature","properties":{"name":"Hermine","year":2010,"wind_kt":60,"category":0,"storm_id":"AL102010"},"geometry":{"type":"LineString","coordinates":[[-97.4,25.3],[-97.7,26.2]]}},{"type":"Feature","properties":{"name":"Hermine","year":2010,"wind_kt":55,"category":0,"storm_id":"AL102010"},"geometry":{"type":"LineString","coordinates":[[-97.7,26.2],[-98.1,27.7]]}},{"type":"Feature","properties":{"name":"Hermine","year":2010,"wind_kt":45,"category":0,"storm_id":"AL102010"},"geometry":{"type":"LineString","coordinates":[[-98.1,27.7],[-98.6,29.4]]}},{"type":"Feature","properties":{"name":"Hermine","year":2010,"wind_kt":40,"category":0,"storm_id":"AL102010"},"geometry":{"type":"LineString","coordinates":[[-98.6,29.4],[-99.1,30.6]]}},{"type":"Feature","properties":{"name":"Don","year":2011,"wind_kt":45,"category":0,"storm_id":"AL042011"},"geometry":{"type":"LineString","coordinates":[[-91.9,24.6],[-93.1,25.1]]}},{"type":"Feature","properties":{"name":"Don","year":2011,"wind_kt":45,"category":0,"storm_id":"AL042011"},"geometry":{"type":"LineString","coordinates":[[-93.1,25.1],[-94.3,25.8]]}},{"type":"Feature","properties":{"name":"Don","year":2011,"wind_kt":45,"category":0,"storm_id":"AL042011"},"geometry":{"type":"LineString","coordinates":[[-94.3,25.8],[-95.5,26.4]]}},{"type":"Feature","properties":{"name":"Don","year":2011,"wind_kt":45,"category":0,"storm_id":"AL042011"},"geometry":{"type":"LineString","coordinates":[[-95.5,26.4],[-96.9,27.0]]}},{"type":"Feature","properties":{"name":"Don","year":2011,"wind_kt":35,"category":0,"storm_id":"AL042011"},"geometry":{"type":"LineString","coordinates":[[-96.9,27.0],[-97.4,27.3]]}},{"type":"Feature","properties":{"name":"Lee","year":2011,"wind_kt":45,"category":0,"storm_id":"AL132011"},"geometry":{"type":"LineString","coordinates":[[-91.8,28.5],[-92.0,29.0]]}},{"type":"Feature","properties":{"name":"Lee","year":2011,"wind_kt":50,"category":0,"storm_id":"AL132011"},"geometry":{"type":"LineString","coordinates":[[-92.0,29.0],[-92.2,29.2]]}},{"type":"Feature","properties":{"name":"Lee","year":2011,"wind_kt":45,"category":0,"storm_id":"AL132011"},"geometry":{"type":"LineString","coordinates":[[-92.2,29.2],[-92.5,29.4]]}},{"type":"Feature","properties":{"name":"Lee","year":2011,"wind_kt":40,"category":0,"storm_id":"AL132011"},"geometry":{"type":"LineString","coordinates":[[-92.5,29.4],[-92.5,29.5]]}},{"type":"Feature","properties":{"name":"Lee","year":2011,"wind_kt":40,"category":0,"storm_id":"AL132011"},"geometry":{"type":"LineString","coordinates":[[-92.5,29.5],[-92.2,29.5]]}},{"type":"Feature","properties":{"name":"Lee","year":2011,"wind_kt":40,"category":0,"storm_id":"AL132011"},"geometry":{"type":"LineString","coordinates":[[-92.2,29.5],[-92.1,29.6]]}},{"type":"Feature","properties":{"name":"Lee","year":2011,"wind_kt":40,"category":0,"storm_id":"AL132011"},"geometry":{"type":"LineString","coordinates":[[-92.1,29.6],[-92.0,29.7]]}},{"type":"Feature","properties":{"name":"Lee","year":2011,"wind_kt":35,"category":0,"storm_id":"AL132011"},"geometry":{"type":"LineString","coordinates":[[-92.0,29.7],[-91.8,30.3]]}},{"type":"Feature","properties":{"name":"Isaac","year":2012,"wind_kt":45,"category":0,"storm_id":"AL092012"},"geometry":{"type":"LineString","coordinates":[[-91.9,31.3],[-92.4,32.1]]}},{"type":"Feature","properties":{"name":"Isaac","year":2012,"wind_kt":35,"category":0,"storm_id":"AL092012"},"geometry":{"type":"LineString","coordinates":[[-92.4,32.1],[-92.9,33.1]]}},{"type":"Feature","properties":{"name":"Bill","year":2015,"wind_kt":45,"category":0,"storm_id":"AL022015"},"geometry":{"type":"LineString","coordinates":[[-94.3,27.0],[-95.2,27.6]]}},{"type":"Feature","properties":{"name":"Bill","year":2015,"wind_kt":45,"category":0,"storm_id":"AL022015"},"geometry":{"type":"LineString","coordinates":[[-95.2,27.6],[-96.0,28.0]]}},{"type":"Feature","properties":{"name":"Bill","year":2015,"wind_kt":50,"category":0,"storm_id":"AL022015"},"geometry":{"type":"LineString","coordinates":[[-96.0,28.0],[-96.7,28.2]]}},{"type":"Feature","properties":{"name":"Bill","year":2015,"wind_kt":50,"category":0,"storm_id":"AL022015"},"geometry":{"type":"LineString","coordinates":[[-96.7,28.2],[-96.7,28.2]]}},{"type":"Feature","properties":{"name":"Bill","year":2015,"wind_kt":50,"category":0,"storm_id":"AL022015"},"geometry":{"type":"LineString","coordinates":[[-96.7,28.2],[-96.9,29.1]]}},{"type":"Feature","properties":{"name":"Bill","year":2015,"wind_kt":40,"category":0,"storm_id":"AL022015"},"geometry":{"type":"LineString","coordinates":[[-96.9,29.1],[-97.1,30.3]]}},{"type":"Feature","properties":{"name":"Cindy","year":2017,"wind_kt":50,"category":0,"storm_id":"AL032017"},"geometry":{"type":"LineString","coordinates":[[-91.5,26.8],[-92.3,27.3]]}},{"type":"Feature","properties":{"name":"Cindy","year":2017,"wind_kt":50,"category":0,"storm_id":"AL032017"},"geometry":{"type":"LineString","coordinates":[[-92.3,27.3],[-93.0,27.8]]}},{"type":"Feature","properties":{"name":"Cindy","year":2017,"wind_kt":45,"category":0,"storm_id":"AL032017"},"geometry":{"type":"LineString","coordinates":[[-93.0,27.8],[-93.4,28.5]]}},{"type":"Feature","properties":{"name":"Cindy","year":2017,"wind_kt":45,"category":0,"storm_id":"AL032017"},"geometry":{"type":"LineString","coordinates":[[-93.4,28.5],[-93.6,29.4]]}},{"type":"Feature","properties":{"name":"Cindy","year":2017,"wind_kt":45,"category":0,"storm_id":"AL032017"},"geometry":{"type":"LineString","coordinates":[[-93.6,29.4],[-93.7,29.8]]}},{"type":"Feature","properties":{"name":"Cindy","year":2017,"wind_kt":45,"category":0,"storm_id":"AL032017"},"geometry":{"type":"LineString","coordinates":[[-93.7,29.8],[-93.8,30.5]]}},{"type":"Feature","properties":{"name":"Cindy","year":2017,"wind_kt":40,"category":0,"storm_id":"AL032017"},"geometry":{"type":"LineString","coordinates":[[-93.8,30.5],[-93.8,31.6]]}},{"type":"Feature","properties":{"name":"Cindy","year":2017,"wind_kt":35,"category":0,"storm_id":"AL032017"},"geometry":{"type":"LineString","coordinates":[[-93.8,31.6],[-93.6,32.8]]}},{"type":"Feature","properties":{"name":"Harvey","year":2017,"wind_kt":60,"category":0,"storm_id":"AL092017"},"geometry":{"type":"LineString","coordinates":[[-93.1,23.7],[-93.6,24.4]]}},{"type":"Feature","properties":{"name":"Harvey","year":2017,"wind_kt":70,"category":1,"storm_id":"AL092017"},"geometry":{"type":"LineString","coordinates":[[-93.6,24.4],[-94.4,25.0]]}},{"type":"Feature","properties":{"name":"Harvey","year":2017,"wind_kt":80,"category":1,"storm_id":"AL092017"},"geometry":{"type":"LineString","coordinates":[[-94.4,25.0],[-95.1,25.6]]}},{"type":"Feature","properties":{"name":"Harvey","year":2017,"wind_kt":90,"category":2,"storm_id":"AL092017"},"geometry":{"type":"LineString","coordinates":[[-95.1,25.6],[-95.8,26.3]]}},{"type":"Feature","properties":{"name":"Harvey","year":2017,"wind_kt":95,"category":2,"storm_id":"AL092017"},"geometry":{"type":"LineString","coordinates":[[-95.8,26.3],[-96.3,27.1]]}},{"type":"Feature","properties":{"name":"Harvey","year":2017,"wind_kt":105,"category":3,"storm_id":"AL092017"},"geometry":{"type":"LineString","coordinates":[[-96.3,27.1],[-96.8,27.8]]}},{"type":"Feature","properties":{"name":"Harvey","year":2017,"wind_kt":115,"category":4,"storm_id":"AL092017"},"geometry":{"type":"LineString","coordinates":[[-96.8,27.8],[-96.9,28.0]]}},{"type":"Feature","properties":{"name":"Harvey","year":2017,"wind_kt":115,"category":4,"storm_id":"AL092017"},"geometry":{"type":"LineString","coordinates":[[-96.9,28.0],[-97.1,28.2]]}},{"type":"Feature","properties":{"name":"Harvey","year":2017,"wind_kt":105,"category":3,"storm_id":"AL092017"},"geometry":{"type":"LineString","coordinates":[[-97.1,28.2],[-97.3,28.7]]}},{"type":"Feature","properties":{"name":"Harvey","year":2017,"wind_kt":65,"category":1,"storm_id":"AL092017"},"geometry":{"type":"LineString","coordinates":[[-97.3,28.7],[-97.5,29.0]]}},{"type":"Feature","properties":{"name":"Harvey","year":2017,"wind_kt":50,"category":0,"storm_id":"AL092017"},"geometry":{"type":"LineString","coordinates":[[-97.5,29.0],[-97.4,29.2]]}},{"type":"Feature","properties":{"name":"Harvey","year":2017,"wind_kt":45,"category":0,"storm_id":"AL092017"},"geometry":{"type":"LineString","coordinates":[[-97.4,29.2],[-97.6,29.3]]}},{"type":"Feature","properties":{"name":"Harvey","year":2017,"wind_kt":40,"category":0,"storm_id":"AL092017"},"geometry":{"type":"LineString","coordinates":[[-97.6,29.3],[-97.5,29.1]]}},{"type":"Feature","properties":{"name":"Harvey","year":2017,"wind_kt":35,"category":0,"storm_id":"AL092017"},"geometry":{"type":"LineString","coordinates":[[-97.5,29.1],[-97.2,29.0]]}},{"type":"Feature","properties":{"name":"Harvey","year":2017,"wind_kt":35,"category":0,"storm_id":"AL092017"},"geometry":{"type":"LineString","coordinates":[[-97.2,29.0],[-96.8,28.8]]}},{"type":"Feature","properties":{"name":"Harvey","year":2017,"wind_kt":35,"category":0,"storm_id":"AL092017"},"geometry":{"type":"LineString","coordinates":[[-96.8,28.8],[-96.5,28.6]]}},{"type":"Feature","properties":{"name":"Harvey","year":2017,"wind_kt":40,"category":0,"storm_id":"AL092017"},"geometry":{"type":"LineString","coordinates":[[-96.5,28.6],[-96.2,28.5]]}},{"type":"Feature","properties":{"name":"Harvey","year":2017,"wind_kt":40,"category":0,"storm_id":"AL092017"},"geometry":{"type":"LineString","coordinates":[[-96.2,28.5],[-95.9,28.4]]}},{"type":"Feature","properties":{"name":"Harvey","year":2017,"wind_kt":40,"category":0,"storm_id":"AL092017"},"geometry":{"type":"LineString","coordinates":[[-95.9,28.4],[-95.4,28.2]]}},{"type":"Feature","properties":{"name":"Harvey","year":2017,"wind_kt":40,"category":0,"storm_id":"AL092017"},"geometry":{"type":"LineString","coordinates":[[-95.4,28.2],[-95.0,28.1]]}},{"type":"Feature","properties":{"name":"Harvey","year":2017,"wind_kt":40,"category":0,"storm_id":"AL092017"},"geometry":{"type":"LineString","coordinates":[[-95.0,28.1],[-94.6,28.2]]}},{"type":"Feature","properties":{"name":"Harvey","year":2017,"wind_kt":40,"category":0,"storm_id":"AL092017"},"geometry":{"type":"LineString","coordinates":[[-94.6,28.2],[-94.2,28.5]]}},{"type":"Feature","properties":{"name":"Harvey","year":2017,"wind_kt":45,"category":0,"storm_id":"AL092017"},"geometry":{"type":"LineString","coordinates":[[-94.2,28.5],[-93.8,28.9]]}},{"type":"Feature","properties":{"name":"Harvey","year":2017,"wind_kt":45,"category":0,"storm_id":"AL092017"},"geometry":{"type":"LineString","coordinates":[[-93.8,28.9],[-93.6,29.4]]}},{"type":"Feature","properties":{"name":"Harvey","year":2017,"wind_kt":40,"category":0,"storm_id":"AL092017"},"geometry":{"type":"LineString","coordinates":[[-93.6,29.4],[-93.5,29.8]]}},{"type":"Feature","properties":{"name":"Harvey","year":2017,"wind_kt":40,"category":0,"storm_id":"AL092017"},"geometry":{"type":"LineString","coordinates":[[-93.5,29.8],[-93.4,30.1]]}},{"type":"Feature","properties":{"name":"Harvey","year":2017,"wind_kt":40,"category":0,"storm_id":"AL092017"},"geometry":{"type":"LineString","coordinates":[[-93.4,30.1],[-93.1,30.6]]}},{"type":"Feature","properties":{"name":"Harvey","year":2017,"wind_kt":35,"category":0,"storm_id":"AL092017"},"geometry":{"type":"LineString","coordinates":[[-93.1,30.6],[-92.6,31.3]]}},{"type":"Feature","properties":{"name":"Barry","year":2019,"wind_kt":65,"category":1,"storm_id":"AL022019"},"geometry":{"type":"LineString","coordinates":[[-91.9,29.3],[-92.2,29.6]]}},{"type":"Feature","properties":{"name":"Barry","year":2019,"wind_kt":65,"category":1,"storm_id":"AL022019"},"geometry":{"type":"LineString","coordinates":[[-92.2,29.6],[-92.4,29.9]]}},{"type":"Feature","properties":{"name":"Barry","year":2019,"wind_kt":60,"category":0,"storm_id":"AL022019"},"geometry":{"type":"LineString","coordinates":[[-92.4,29.9],[-92.8,30.4]]}},{"type":"Feature","properties":{"name":"Barry","year":2019,"wind_kt":50,"category":0,"storm_id":"AL022019"},"geometry":{"type":"LineString","coordinates":[[-92.8,30.4],[-93.2,31.0]]}},{"type":"Feature","properties":{"name":"Barry","year":2019,"wind_kt":40,"category":0,"storm_id":"AL022019"},"geometry":{"type":"LineString","coordinates":[[-93.2,31.0],[-93.5,31.6]]}},{"type":"Feature","properties":{"name":"Barry","year":2019,"wind_kt":35,"category":0,"storm_id":"AL022019"},"geometry":{"type":"LineString","coordinates":[[-93.5,31.6],[-93.6,32.3]]}},{"type":"Feature","properties":{"name":"Barry","year":2019,"wind_kt":35,"category":0,"storm_id":"AL022019"},"geometry":{"type":"LineString","coordinates":[[-93.6,32.3],[-93.6,33.0]]}},{"type":"Feature","properties":{"name":"Fernand","year":2019,"wind_kt":45,"category":0,"storm_id":"AL072019"},"geometry":{"type":"LineString","coordinates":[[-96.8,23.4],[-97.2,24.0]]}},{"type":"Feature","properties":{"name":"Fernand","year":2019,"wind_kt":40,"category":0,"storm_id":"AL072019"},"geometry":{"type":"LineString","coordinates":[[-97.2,24.0],[-97.7,24.2]]}},{"type":"Feature","properties":{"name":"Fernand","year":2019,"wind_kt":40,"category":0,"storm_id":"AL072019"},"geometry":{"type":"LineString","coordinates":[[-97.7,24.2],[-98.0,24.3]]}},{"type":"Feature","properties":{"name":"Imelda","year":2019,"wind_kt":35,"category":0,"storm_id":"AL112019"},"geometry":{"type":"LineString","coordinates":[[-95.5,28.6],[-95.4,28.9]]}},{"type":"Feature","properties":{"name":"Imelda","year":2019,"wind_kt":40,"category":0,"storm_id":"AL112019"},"geometry":{"type":"LineString","coordinates":[[-95.4,28.9],[-95.4,29.0]]}},{"type":"Feature","properties":{"name":"Imelda","year":2019,"wind_kt":40,"category":0,"storm_id":"AL112019"},"geometry":{"type":"LineString","coordinates":[[-95.4,29.0],[-95.5,29.5]]}},{"type":"Feature","properties":{"name":"Nestor","year":2019,"wind_kt":40,"category":0,"storm_id":"AL162019"},"geometry":{"type":"LineString","coordinates":[[-94.5,23.2],[-93.0,24.1]]}},{"type":"Feature","properties":{"name":"Nestor","year":2019,"wind_kt":45,"category":0,"storm_id":"AL162019"},"geometry":{"type":"LineString","coordinates":[[-93.0,24.1],[-91.2,25.2]]}},{"type":"Feature","properties":{"name":"Olga","year":2019,"wind_kt":35,"category":0,"storm_id":"AL172019"},"geometry":{"type":"LineString","coordinates":[[-94.8,24.7],[-93.6,25.9]]}},{"type":"Feature","properties":{"name":"Olga","year":2019,"wind_kt":40,"category":0,"storm_id":"AL172019"},"geometry":{"type":"LineString","coordinates":[[-93.6,25.9],[-92.5,27.0]]}},{"type":"Feature","properties":{"name":"Olga","year":2019,"wind_kt":45,"category":0,"storm_id":"AL172019"},"geometry":{"type":"LineString","coordinates":[[-92.5,27.0],[-91.2,28.8]]}},{"type":"Feature","properties":{"name":"Hanna","year":2020,"wind_kt":35,"category":0,"storm_id":"AL082020"},"geometry":{"type":"LineString","coordinates":[[-91.1,26.2],[-92.0,26.6]]}},{"type":"Feature","properties":{"name":"Hanna","year":2020,"wind_kt":40,"category":0,"storm_id":"AL082020"},"geometry":{"type":"LineString","coordinates":[[-92.0,26.6],[-92.8,27.1]]}},{"type":"Feature","properties":{"name":"Hanna","year":2020,"wind_kt":45,"category":0,"storm_id":"AL082020"},"geometry":{"type":"LineString","coordinates":[[-92.8,27.1],[-93.7,27.2]]}},{"type":"Feature","properties":{"name":"Hanna","year":2020,"wind_kt":50,"category":0,"storm_id":"AL082020"},"geometry":{"type":"LineString","coordinates":[[-93.7,27.2],[-94.5,27.1]]}},{"type":"Feature","properties":{"name":"Hanna","year":2020,"wind_kt":55,"category":0,"storm_id":"AL082020"},"geometry":{"type":"LineString","coordinates":[[-94.5,27.1],[-95.3,27.1]]}},{"type":"Feature","properties":{"name":"Hanna","year":2020,"wind_kt":60,"category":0,"storm_id":"AL082020"},"geometry":{"type":"LineString","coordinates":[[-95.3,27.1],[-96.0,27.1]]}},{"type":"Feature","properties":{"name":"Hanna","year":2020,"wind_kt":70,"category":1,"storm_id":"AL082020"},"geometry":{"type":"LineString","coordinates":[[-96.0,27.1],[-96.8,26.9]]}},{"type":"Feature","properties":{"name":"Hanna","year":2020,"wind_kt":80,"category":1,"storm_id":"AL082020"},"geometry":{"type":"LineString","coordinates":[[-96.8,26.9],[-97.3,26.8]]}},{"type":"Feature","properties":{"name":"Hanna","year":2020,"wind_kt":80,"category":1,"storm_id":"AL082020"},"geometry":{"type":"LineString","coordinates":[[-97.3,26.8],[-97.5,26.7]]}},{"type":"Feature","properties":{"name":"Hanna","year":2020,"wind_kt":80,"category":1,"storm_id":"AL082020"},"geometry":{"type":"LineString","coordinates":[[-97.5,26.7],[-97.6,26.7]]}},{"type":"Feature","properties":{"name":"Hanna","year":2020,"wind_kt":75,"category":1,"storm_id":"AL082020"},"geometry":{"type":"LineString","coordinates":[[-97.6,26.7],[-98.5,26.5]]}},{"type":"Feature","properties":{"name":"Hanna","year":2020,"wind_kt":55,"category":0,"storm_id":"AL082020"},"geometry":{"type":"LineString","coordinates":[[-98.5,26.5],[-99.3,26.2]]}},{"type":"Feature","properties":{"name":"Hanna","year":2020,"wind_kt":40,"category":0,"storm_id":"AL082020"},"geometry":{"type":"LineString","coordinates":[[-99.3,26.2],[-100.3,25.8]]}},{"type":"Feature","properties":{"name":"Laura","year":2020,"wind_kt":100,"category":3,"storm_id":"AL132020"},"geometry":{"type":"LineString","coordinates":[[-91.4,26.4],[-92.5,27.3]]}},{"type":"Feature","properties":{"name":"Laura","year":2020,"wind_kt":120,"category":4,"storm_id":"AL132020"},"geometry":{"type":"LineString","coordinates":[[-92.5,27.3],[-93.0,28.5]]}},{"type":"Feature","properties":{"name":"Laura","year":2020,"wind_kt":130,"category":4,"storm_id":"AL132020"},"geometry":{"type":"LineString","coordinates":[[-93.0,28.5],[-93.3,29.8]]}},{"type":"Feature","properties":{"name":"Laura","year":2020,"wind_kt":130,"category":4,"storm_id":"AL132020"},"geometry":{"type":"LineString","coordinates":[[-93.3,29.8],[-93.3,31.2]]}},{"type":"Feature","properties":{"name":"Laura","year":2020,"wind_kt":85,"category":2,"storm_id":"AL132020"},"geometry":{"type":"LineString","coordinates":[[-93.3,31.2],[-92.9,32.8]]}},{"type":"Feature","properties":{"name":"Laura","year":2020,"wind_kt":55,"category":0,"storm_id":"AL132020"},"geometry":{"type":"LineString","coordinates":[[-92.9,32.8],[-92.5,34.4]]}},{"type":"Feature","properties":{"name":"Laura","year":2020,"wind_kt":35,"category":0,"storm_id":"AL132020"},"geometry":{"type":"LineString","coordinates":[[-92.5,34.4],[-92.0,35.4]]}},{"type":"Feature","properties":{"name":"Beta","year":2020,"wind_kt":40,"category":0,"storm_id":"AL222020"},"geometry":{"type":"LineString","coordinates":[[-93.1,24.1],[-92.3,25.2]]}},{"type":"Feature","properties":{"name":"Beta","year":2020,"wind_kt":50,"category":0,"storm_id":"AL222020"},"geometry":{"type":"LineString","coordinates":[[-92.3,25.2],[-92.3,25.8]]}},{"type":"Feature","properties":{"name":"Beta","year":2020,"wind_kt":50,"category":0,"storm_id":"AL222020"},"geometry":{"type":"LineString","coordinates":[[-92.3,25.8],[-92.4,26.4]]}},{"type":"Feature","properties":{"name":"Beta","year":2020,"wind_kt":50,"category":0,"storm_id":"AL222020"},"geometry":{"type":"LineString","coordinates":[[-92.4,26.4],[-92.2,26.6]]}},{"type":"Feature","properties":{"name":"Beta","year":2020,"wind_kt":50,"category":0,"storm_id":"AL222020"},"geometry":{"type":"LineString","coordinates":[[-92.2,26.6],[-92.1,26.8]]}},{"type":"Feature","properties":{"name":"Beta","year":2020,"wind_kt":50,"category":0,"storm_id":"AL222020"},"geometry":{"type":"LineString","coordinates":[[-92.1,26.8],[-92.5,26.9]]}},{"type":"Feature","properties":{"name":"Beta","year":2020,"wind_kt":50,"category":0,"storm_id":"AL222020"},"geometry":{"type":"LineString","coordinates":[[-92.5,26.9],[-92.8,27.1]]}},{"type":"Feature","properties":{"name":"Beta","year":2020,"wind_kt":50,"category":0,"storm_id":"AL222020"},"geometry":{"type":"LineString","coordinates":[[-92.8,27.1],[-93.6,27.5]]}},{"type":"Feature","properties":{"name":"Beta","year":2020,"wind_kt":55,"category":0,"storm_id":"AL222020"},"geometry":{"type":"LineString","coordinates":[[-93.6,27.5],[-94.1,27.5]]}},{"type":"Feature","properties":{"name":"Beta","year":2020,"wind_kt":50,"category":0,"storm_id":"AL222020"},"geometry":{"type":"LineString","coordinates":[[-94.1,27.5],[-94.8,27.6]]}},{"type":"Feature","properties":{"name":"Beta","year":2020,"wind_kt":45,"category":0,"storm_id":"AL222020"},"geometry":{"type":"LineString","coordinates":[[-94.8,27.6],[-95.5,27.8]]}},{"type":"Feature","properties":{"name":"Beta","year":2020,"wind_kt":45,"category":0,"storm_id":"AL222020"},"geometry":{"type":"LineString","coordinates":[[-95.5,27.8],[-96.0,28.1]]}},{"type":"Feature","properties":{"name":"Beta","year":2020,"wind_kt":40,"category":0,"storm_id":"AL222020"},"geometry":{"type":"LineString","coordinates":[[-96.0,28.1],[-96.3,28.3]]}},{"type":"Feature","properties":{"name":"Beta","year":2020,"wind_kt":45,"category":0,"storm_id":"AL222020"},"geometry":{"type":"LineString","coordinates":[[-96.3,28.3],[-96.4,28.4]]}},{"type":"Feature","properties":{"name":"Beta","year":2020,"wind_kt":45,"category":0,"storm_id":"AL222020"},"geometry":{"type":"LineString","coordinates":[[-96.4,28.4],[-96.6,28.6]]}},{"type":"Feature","properties":{"name":"Beta","year":2020,"wind_kt":40,"category":0,"storm_id":"AL222020"},"geometry":{"type":"LineString","coordinates":[[-96.6,28.6],[-96.8,28.8]]}},{"type":"Feature","properties":{"name":"Beta","year":2020,"wind_kt":35,"category":0,"storm_id":"AL222020"},"geometry":{"type":"LineString","coordinates":[[-96.8,28.8],[-96.5,28.9]]}},{"type":"Feature","properties":{"name":"Delta","year":2020,"wind_kt":90,"category":2,"storm_id":"AL262020"},"geometry":{"type":"LineString","coordinates":[[-92.4,23.7],[-93.1,24.5]]}},{"type":"Feature","properties":{"name":"Delta","year":2020,"wind_kt":100,"category":3,"storm_id":"AL262020"},"geometry":{"type":"LineString","coordinates":[[-93.1,24.5],[-93.5,25.3]]}},{"type":"Feature","properties":{"name":"Delta","year":2020,"wind_kt":105,"category":3,"storm_id":"AL262020"},"geometry":{"type":"LineString","coordinates":[[-93.5,25.3],[-93.7,26.3]]}},{"type":"Feature","properties":{"name":"Delta","year":2020,"wind_kt":105,"category":3,"storm_id":"AL262020"},"geometry":{"type":"LineString","coordinates":[[-93.7,26.3],[-93.8,27.5]]}},{"type":"Feature","properties":{"name":"Delta","year":2020,"wind_kt":100,"category":3,"storm_id":"AL262020"},"geometry":{"type":"LineString","coordinates":[[-93.8,27.5],[-93.6,28.7]]}},{"type":"Feature","properties":{"name":"Delta","year":2020,"wind_kt":90,"category":2,"storm_id":"AL262020"},"geometry":{"type":"LineString","coordinates":[[-93.6,28.7],[-93.1,29.8]]}},{"type":"Feature","properties":{"name":"Delta","year":2020,"wind_kt":85,"category":2,"storm_id":"AL262020"},"geometry":{"type":"LineString","coordinates":[[-93.1,29.8],[-92.9,30.1]]}},{"type":"Feature","properties":{"name":"Delta","year":2020,"wind_kt":75,"category":1,"storm_id":"AL262020"},"geometry":{"type":"LineString","coordinates":[[-92.9,30.1],[-92.2,31.4]]}},{"type":"Feature","properties":{"name":"Delta","year":2020,"wind_kt":50,"category":0,"storm_id":"AL262020"},"geometry":{"type":"LineString","coordinates":[[-92.2,31.4],[-91.4,32.5]]}},{"type":"Feature","properties":{"name":"Nicholas","year":2021,"wind_kt":40,"category":0,"storm_id":"AL142021"},"geometry":{"type":"LineString","coordinates":[[-96.1,23.7],[-96.5,24.8]]}},{"type":"Feature","properties":{"name":"Nicholas","year":2021,"wind_kt":50,"category":0,"storm_id":"AL142021"},"geometry":{"type":"LineString","coordinates":[[-96.5,24.8],[-96.7,25.9]]}},{"type":"Feature","properties":{"name":"Nicholas","year":2021,"wind_kt":50,"category":0,"storm_id":"AL142021"},"geometry":{"type":"LineString","coordinates":[[-96.7,25.9],[-96.6,27.0]]}},{"type":"Feature","properties":{"name":"Nicholas","year":2021,"wind_kt":55,"category":0,"storm_id":"AL142021"},"geometry":{"type":"LineString","coordinates":[[-96.6,27.0],[-96.2,28.0]]}},{"type":"Feature","properties":{"name":"Nicholas","year":2021,"wind_kt":65,"category":1,"storm_id":"AL142021"},"geometry":{"type":"LineString","coordinates":[[-96.2,28.0],[-95.7,28.7]]}},{"type":"Feature","properties":{"name":"Nicholas","year":2021,"wind_kt":65,"category":1,"storm_id":"AL142021"},"geometry":{"type":"LineString","coordinates":[[-95.7,28.7],[-95.7,28.8]]}},{"type":"Feature","properties":{"name":"Nicholas","year":2021,"wind_kt":65,"category":1,"storm_id":"AL142021"},"geometry":{"type":"LineString","coordinates":[[-95.7,28.8],[-95.4,29.3]]}},{"type":"Feature","properties":{"name":"Nicholas","year":2021,"wind_kt":50,"category":0,"storm_id":"AL142021"},"geometry":{"type":"LineString","coordinates":[[-95.4,29.3],[-94.9,29.6]]}},{"type":"Feature","properties":{"name":"Nicholas","year":2021,"wind_kt":35,"category":0,"storm_id":"AL142021"},"geometry":{"type":"LineString","coordinates":[[-94.9,29.6],[-94.4,29.9]]}},{"type":"Feature","properties":{"name":"Harold","year":2023,"wind_kt":40,"category":0,"storm_id":"AL092023"},"geometry":{"type":"LineString","coordinates":[[-94.3,25.8],[-96.4,26.8]]}},{"type":"Feature","properties":{"name":"Harold","year":2023,"wind_kt":50,"category":0,"storm_id":"AL092023"},"geometry":{"type":"LineString","coordinates":[[-96.4,26.8],[-97.4,27.1]]}},{"type":"Feature","properties":{"name":"Harold","year":2023,"wind_kt":50,"category":0,"storm_id":"AL092023"},"geometry":{"type":"LineString","coordinates":[[-97.4,27.1],[-98.3,27.3]]}},{"type":"Feature","properties":{"name":"Harold","year":2023,"wind_kt":40,"category":0,"storm_id":"AL092023"},"geometry":{"type":"LineString","coordinates":[[-98.3,27.3],[-100.1,27.7]]}},{"type":"Feature","properties":{"name":"Beryl","year":2024,"wind_kt":50,"category":0,"storm_id":"AL022024"},"geometry":{"type":"LineString","coordinates":[[-92.7,23.6],[-93.6,24.4]]}},{"type":"Feature","properties":{"name":"Beryl","year":2024,"wind_kt":50,"category":0,"storm_id":"AL022024"},"geometry":{"type":"LineString","coordinates":[[-93.6,24.4],[-94.3,24.9]]}},{"type":"Feature","properties":{"name":"Beryl","year":2024,"wind_kt":50,"category":0,"storm_id":"AL022024"},"geometry":{"type":"LineString","coordinates":[[-94.3,24.9],[-94.9,25.5]]}},{"type":"Feature","properties":{"name":"Beryl","year":2024,"wind_kt":55,"category":0,"storm_id":"AL022024"},"geometry":{"type":"LineString","coordinates":[[-94.9,25.5],[-95.4,26.3]]}},{"type":"Feature","properties":{"name":"Beryl","year":2024,"wind_kt":55,"category":0,"storm_id":"AL022024"},"geometry":{"type":"LineString","coordinates":[[-95.4,26.3],[-95.7,27.1]]}},{"type":"Feature","properties":{"name":"Beryl","year":2024,"wind_kt":60,"category":0,"storm_id":"AL022024"},"geometry":{"type":"LineString","coordinates":[[-95.7,27.1],[-95.9,28.2]]}},{"type":"Feature","properties":{"name":"Beryl","year":2024,"wind_kt":70,"category":1,"storm_id":"AL022024"},"geometry":{"type":"LineString","coordinates":[[-95.9,28.2],[-96.0,28.6]]}},{"type":"Feature","properties":{"name":"Beryl","year":2024,"wind_kt":80,"category":1,"storm_id":"AL022024"},"geometry":{"type":"LineString","coordinates":[[-96.0,28.6],[-96.0,29.3]]}},{"type":"Feature","properties":{"name":"Beryl","year":2024,"wind_kt":70,"category":1,"storm_id":"AL022024"},"geometry":{"type":"LineString","coordinates":[[-96.0,29.3],[-95.6,30.7]]}},{"type":"Feature","properties":{"name":"Beryl","year":2024,"wind_kt":50,"category":0,"storm_id":"AL022024"},"geometry":{"type":"LineString","coordinates":[[-95.6,30.7],[-94.9,32.1]]}},{"type":"Feature","properties":{"name":"Francine","year":2024,"wind_kt":55,"category":0,"storm_id":"AL062024"},"geometry":{"type":"LineString","coordinates":[[-96.1,23.9],[-96.2,24.1]]}},{"type":"Feature","properties":{"name":"Francine","year":2024,"wind_kt":55,"category":0,"storm_id":"AL062024"},"geometry":{"type":"LineString","coordinates":[[-96.2,24.1],[-95.8,24.5]]}},{"type":"Feature","properties":{"name":"Francine","year":2024,"wind_kt":55,"category":0,"storm_id":"AL062024"},"geometry":{"type":"LineString","coordinates":[[-95.8,24.5],[-95.3,25.3]]}},{"type":"Feature","properties":{"name":"Francine","year":2024,"wind_kt":55,"category":0,"storm_id":"AL062024"},"geometry":{"type":"LineString","coordinates":[[-95.3,25.3],[-94.7,26.0]]}},{"type":"Feature","properties":{"name":"Francine","year":2024,"wind_kt":65,"category":1,"storm_id":"AL062024"},"geometry":{"type":"LineString","coordinates":[[-94.7,26.0],[-94.1,26.6]]}},{"type":"Feature","properties":{"name":"Francine","year":2024,"wind_kt":80,"category":1,"storm_id":"AL062024"},"geometry":{"type":"LineString","coordinates":[[-94.1,26.6],[-93.2,27.5]]}},{"type":"Feature","properties":{"name":"Francine","year":2024,"wind_kt":80,"category":1,"storm_id":"AL062024"},"geometry":{"type":"LineString","coordinates":[[-93.2,27.5],[-92.1,28.6]]}},{"type":"Feature","properties":{"name":"Francine","year":2024,"wind_kt":85,"category":2,"storm_id":"AL062024"},"geometry":{"type":"LineString","coordinates":[[-92.1,28.6],[-91.3,29.3]]}}]}