{"type":"FeatureCollection","features":[{"type":"Feature","properties":{"utility":"xcel_sps"},"geometry":{"type":"Polygon","coordinates":[[[-103.0646456174423,32.959108423647706],[-103.04361683553061,34.003660502723356],[-103.04165767153155,36.478507343398825],[-103.00217951903264,36.500396978489555],[-100.54615647651754,36.49933158142074],[-100.54306588669087,36.05876463186487],[-100.00041047405078,36.05566554304126],[-100.00039253393571,34.74636956637507],[-100.40591044381549,34.74749695767877],[-100.41549606501853,34.7404386825064],[-100.41779438626779,34.31353543633497],[-100.50833123783731,34.31403903015171],[-100.51731735727414,34.30509304621986],[-100.51921944768733,32.96293753983906],[-100.64691472463669,32.96338568544216],[-100.65551958732858,32.95642385276614],[-100.66063728621133,32.525323462591196],[-102.20269178732642,32.523282406599826],[-102.20838822593092,32.94908631024854],[-102.21371216798842,32.95779265077247],[-103.0646456174423,32.959108423647706]]]}},{"type":"Feature","properties":{"utility":"oncor"},"geometry":{"type":"MultiPolygon","coordinates":[[[[-100.51867942369066,33.83566155162455],[-100.51732855330103,34.31409050194623],[-100.42676247330873,34.313572223897815],[-100.41793924425895,34.32153610397795],[-100.415649755771,34.74752431121451],[-100.00039245659141,34.74634657554006],[-99.99603726126509,34.56684210742127],[-99.94599138836745,34.57923993154062],[-99.92321654094495,34.57453942899224],[-99.88459977356092,34.5467242550784],[-99.76760447219127,34.43082964028347],[-99.69350284511029,34.37815880681939],[-99.61809792393886,34.37579852365307],[-99.57436600732046,34.418271656685896],[-99.51511125026506,34.41424960428771],[-99.45348584663084,34.38874408970763],[-99.43944423607795,34.374521995218814],[-99.40720114516034,34.37281276613473],[-99.35670826358262,34.44212926786688],[-99.26156927627011,34.40359958114368],[-99.21143587056275,34.33789171899419],[-99.21149259254499,34.29180609738802],[-99.18505469453709,34.21389704189623],[-99.11920157121135,34.20179692271521],[-98.96674619921124,34.20116966135406],[-98.85793964625562,34.152692067129095],[-98.76556679569178,34.136411468661066],[-98.70129953602441,34.13605992915597],[-98.6523422087853,34.161015759203],[-98.59979270113169,34.16055703051619],[-98.55372613948632,34.133649886024386],[-98.50473988529647,34.073399429790555],[-98.47785892988914,34.0652662619045],[-98.36402105557106,34.157095904093204],[-98.32545003324637,34.15101190635973],[-98.29424545464013,34.13310513075206],[-98.16912673377578,34.11415855388952],[-98.0857357035895,34.00380299732612],[-98.03993867531733,33.99347495603687],[-97.98352159358659,34.00154557018865],[-97.94574357118397,33.989830420549225],[-97.95341051325373,33.93645002715196],[-97.97385849849526,33.88844469405627],[-97.87692801565194,33.85024291544896],[-97.83490719143755,33.85758435979072],[-97.785864408256,33.890332122598835],[-97.69310192728143,33.983690493714924],[-97.67177093109584,33.99135705359516],[-97.60933532807728,33.968203940368284],[-97.58960784372456,33.953546027340344],[-97.59679691013564,33.91727132064736],[-97.5854649288625,33.90188689715181],[-97.5539480774743,33.89769097039368],[-97.50095912631245,33.91963029061219],[-97.45807643131644,33.901626684926875],[-97.45146356219138,33.87114611857647],[-97.4616615242994,33.83959820150714],[-97.45174753934057,33.827832371714706],[-97.42648403534547,33.81947195061168],[-97.37270022253965,33.82025600731841],[-97.31083281330994,33.872445627185066],[-97.21092423705157,33.91604992171764],[-97.1808566861228,33.895197715511195],[-97.16664288949939,33.84730918160614],[-97.17163506879004,33.8353468258128],[-97.20014793728036,33.82653303779202],[-97.20410744764426,33.79862953011592],[-97.17150312255829,33.736970514539614],[-97.15123034150436,33.72267160146563],[-97.12294840390122,33.71734146663093],[-97.09319837494415,33.73231958089175],[-97.04796300957203,33.817925165046034],[-96.98647268379807,33.885497998481235],[-96.9728600878874,33.93568978831185],[-96.92211320391776,33.95956784519171],[-96.89945152248644,33.93372529876712],[-96.89572550428949,33.896969572437946],[-96.88340114294998,33.86902598289974],[-96.85646081675915,33.84773584844426],[-96.76253826369113,33.82468589624718],[-96.7139197305798,33.831460459490785],[-96.69466068518999,33.850005928437184],[-96.67857098653118,33.89278029328401],[-96.65864261839073,33.90006657372412],[-96.61523026960876,33.88092540441313],[-96.61001695153301,33.832413736473484],[-96.50154303632316,33.7734787176718],[-96.44804428789719,33.781012254114465],[-96.42336794424845,33.77635542048498],[-96.36766576145165,33.71892871485569],[-96.30467231350337,33.745889359643336],[-96.2199906405398,33.74757157325434],[-96.18181050682267,33.75868189181127],[-96.1692079832636,33.77131648691336],[-96.14783770668387,33.83784378668815],[-95.94993569504679,33.85743642194038],[-95.84634542248357,33.841126528912795],[-95.85525484902054,33.46460723185973],[-95.82588983907331,33.4596866837221],[-95.75843676187398,33.49508768654712],[-95.62102849630503,33.48704998957634],[-95.3075533003685,33.38066536300603],[-95.30819478726261,32.968709347201646],[-95.29900289237199,32.96251762236624],[-95.17680209411162,32.96229243179391],[-95.15221563982345,33.01340003579018],[-95.15295521986293,32.5754509398398],[-95.1453148341029,32.56851668188694],[-94.986946533798,32.53723648994022],[-94.98504493973707,31.856051653260046],[-94.97710997289266,31.846275247137328],[-94.93754753629348,31.845543848950996],[-94.96694305064841,31.753298722816545],[-94.95097077037967,31.640111128084992],[-94.863789940998,31.52586588014223],[-94.72916055598562,31.4575393090574],[-94.54489689870582,31.431703314440522],[-94.52929842598685,31.40121013458385],[-94.49587840724134,31.405714195606727],[-94.32688207030803,31.225089972666865],[-94.12966074622605,31.099285362343174],[-94.45781967103426,31.033341300378137],[-94.8426996938496,31.146500882063123],[-94.90918588445342,31.335974001630092],[-94.96040906591624,31.38385240067698],[-95.61787115660327,30.930432015327053],[-95.6811442422787,30.986962726912342],[-95.66535154359855,31.074210144310197],[-95.67148821305095,31.084274791996624],[-95.76496990945441,31.094205489959055],[-95.97477881238144,31.091677696495633],[-96.26268184937081,30.964357320640893],[-96.33672987622288,30.921281088987737],[-96.4576376997732,30.74448300130233],[-96.56697584942971,30.69568592452127],[-96.5957670343937,30.71507930308157],[-96.60250121509026,30.728137728640103],[-96.62302501493001,30.729883952145613],[-97.15521941296154,30.457356680897693],[-97.33424171342494,30.402910284481642],[-97.57566097467938,30.501082235991845],[-97.7752076561495,30.430006569913107],[-97.96042675490064,30.628039613317775],[-98.05152282024775,30.62065244346366],[-98.12244258869599,30.48591184236245],[-98.12556702103694,30.42620096801614],[-98.35103288213773,30.4861057240069],[-98.43897987735936,30.67328236261199],[-98.377064105034,30.73963255690717],[-98.43208000808978,30.7863106372911],[-98.38065050625957,30.83674640858502],[-98.44581626215744,30.920218676971995],[-99.09241941808563,30.92197945883742],[-99.09061101789652,31.460918259680383],[-98.99026875697812,31.48487245649859],[-98.78191029564555,31.609782893567733],[-98.76004759462094,31.68788544074759],[-98.68343675687409,31.69849579431653],[-98.67590776572204,31.706459542459363],[-98.92438498034676,32.07801366468545],[-98.55116151091175,32.26142164097622],[-98.33124647454935,31.94694306346896],[-98.3206152479516,31.944819145054343],[-98.25121465306606,31.980112685867528],[-98.21271422039466,31.923919922166917],[-98.20331042748299,31.920475269153048],[-97.6192160233672,32.20184212914911],[-97.61698454406292,32.31409616510903],[-97.78224778615618,32.31633159524421],[-97.94561968814611,32.233482939058916],[-98.07129271171274,32.51090825520763],[-98.5762440474162,32.51517530163156],[-98.57638099255637,32.94821823434701],[-98.58556202568653,32.95441708987922],[-98.95086377195257,32.956929229234156],[-98.9538691648918,33.387631992153736],[-98.95915670267127,33.396382623606215],[-99.99096877365642,33.39741540237218],[-100.00000805814334,33.833732355603416],[-100.51867942369066,33.83566155162455]],[[-95.9344365673175,32.83720545220046],[-95.8286884903922,32.76679382872365],[-95.64908185386471,32.723747731682096],[-95.63738397540365,32.72997758291425],[-95.6666821699135,32.957722706210475],[-95.86251035936226,32.979581029939304],[-95.86060011768474,33.403666214706746],[-95.87021542976757,33.40801429091567],[-96.29117951183034,33.35136262171244],[-96.29566276928628,32.84607096813957],[-95.9344365673175,32.83720545220046]],[[-97.37313344502248,33.430134800817065],[-97.38344358411125,33.42048955737868],[-97.39474811564497,32.99293266608491],[-96.84614013193426,32.99118363950126],[-96.83781092425218,33.40413298396874],[-96.94418994103602,33.41642087586032],[-97.37313344502248,33.430134800817065]]],[[[-103.32752643248618,31.651431530688345],[-103.32648959360642,32.00035857133648],[-103.074389178317,32.00049337838761],[-103.06460700121438,32.008537640557],[-103.06464545925394,32.95908546990148],[-102.20853116624868,32.95894468001041],[-102.20283523248764,32.53317502464857],[-102.19473805864568,32.523491060403984],[-101.17458301963593,32.52410026225867],[-101.18400794884748,32.08721917757247],[-101.25526672945212,32.08709634151725],[-101.26422791822101,32.078186649515715],[-101.27481012592216,31.079390306016954],[-102.30120139479955,31.086222792911496],[-102.3177611659122,31.64163318389814],[-102.32311980976603,31.65019532353537],[-103.32752643248618,31.651431530688345]]]]}},{"type":"Feature","properties":{"utility":"farmers_ec"},"geometry":{"type":"Polygon","coordinates":[[[-96.29731068918362,32.84173413859625],[-96.29540205864919,33.35192635941178],[-95.85873529501426,33.40951620206757],[-95.86233409301465,32.985487133483595],[-95.85382370710404,32.97872669215475],[-95.66539896390162,32.96042374206233],[-95.63502980338082,32.72039428331688],[-95.82957701040559,32.76697611288502],[-95.9355004191099,32.837039345585005],[-96.29731068918362,32.84173413859625]]]}},{"type":"Feature","properties":{"utility":"tnmp"},"geometry":{"type":"MultiPolygon","coordinates":[[[[-94.78311818280119,29.37563752667333],[-94.70687182660477,29.436691650486384],[-94.6726178337952,29.47671302893348],[-94.64341025933177,29.474086307036348],[-94.6085770945396,29.48338620474118],[-94.59599170788138,29.492473278237657],[-94.59139776868072,29.51385061513269],[-94.56667236127053,29.531977083296525],[-94.53178884663573,29.518055734599965],[-94.50467018758602,29.52184265698181],[-94.49932421222792,29.534234909440556],[-94.51104780549038,29.54297212536451],[-94.41693306927124,29.571575717165437],[-94.40898265560033,29.597456041564207],[-94.37183882825964,29.597167007361993],[-94.3708769805732,29.555077372962113],[-94.63134279586255,29.451327810364557],[-94.69473634485111,29.415123630229722],[-94.73105457941706,29.369153299747413],[-94.7786872918853,29.36149445360081],[-94.78311818280119,29.37563752667333]]],[[[-95.23306911230546,29.465568453433644],[-95.21641639185685,29.556057376051378],[-95.1614455118626,29.499867939139023],[-95.01819914591971,29.55456902419377],[-95.01359078011605,29.53808002714688],[-94.98304480156656,29.51177693734449],[-94.90948138120473,29.4968288610117],[-94.92839041537057,29.456630122301274],[-94.89081111119908,29.433423659595455],[-94.88653966370163,29.366619757590595],[-94.89401962220977,29.311354627154387],[-94.88590583174434,29.297775848516082],[-94.86575804951411,29.29392083598443],[-94.82803077802468,29.305388959337286],[-94.8222950813098,29.3442481506884],[-94.81069554778942,29.35342053872565],[-94.78412155892468,29.335850740354637],[-94.73132314969855,29.338054267542805],[-94.7225628530474,29.331457819878388],[-95.02643962637144,29.147917686201243],[-95.11923052797174,29.077904630259265],[-95.05854268736209,29.202213675031352],[-95.23306911230546,29.465568453433644]]],[[[-98.55114186542939,32.26143185425685],[-98.47559081497415,32.30214758053271],[-98.47516545166205,32.513027413844256],[-98.06855228548949,32.51161485771926],[-97.94623700593334,32.23881694546796],[-97.78275743503046,32.31648261151339],[-97.61529761898291,32.31860620899857],[-97.61506592075825,32.203587947809226],[-98.20838233946132,31.91752499837826],[-98.25249888140341,31.977023808859713],[-98.327495479687,31.941275084393027],[-98.55114186542939,32.26143185425685]]],[[[-104.10233876926874,31.10520894025692],[-104.02451029189534,31.999998350441594],[-103.3265125757314,32.00035845427834],[-103.32307433538432,31.65311008005952],[-102.76725849312959,31.651702015559692],[-102.76737638918591,31.293810467964747],[-102.82708626558748,31.267923253166767],[-103.00424938269708,31.367489104068593],[-103.01486055219063,31.366980385666324],[-103.58508578689438,30.766485352880185],[-104.10233876926874,31.10520894025692]]]]}},{"type":"Feature","properties":{"utility":"aep_north"},"geometry":{"type":"Polygon","coordinates":[[[-104.98521518739271,30.623934482331293],[-104.97941465955523,30.629470178081554],[-104.91718575908922,30.66361351269598],[-104.10235156348304,31.105189453772063],[-103.58256726465747,30.770254396620842],[-103.01103764099354,31.371290361716284],[-102.82953804301832,31.269526210182143],[-102.77022093254713,31.293373021472927],[-102.76723545465161,31.651703021510595],[-102.31806075126838,31.651315933161374],[-102.30149756328927,31.095796041941806],[-102.29534485996456,31.08686172613985],[-101.27914368933945,31.081037849388053],[-101.2642046842158,32.08712461881214],[-101.19280864297082,32.08724687728667],[-101.18401424648138,32.09506465016131],[-101.17455050417911,32.527691421589665],[-100.67056406563415,32.52535823516339],[-100.66174071018243,32.53056571538153],[-100.65585872292677,32.963457554464895],[-100.52822690095483,32.96300998362525],[-100.51921967266739,32.97194528441901],[-100.51867944245038,33.8356384831313],[-99.99644518272339,33.83595567886564],[-99.99110319833542,33.407310533109886],[-99.98396019578168,33.397851461889864],[-98.95394928179897,33.39752267207923],[-98.94866809915658,32.960499241364836],[-98.57562743767164,32.954337656904094],[-98.57605883103805,32.523166254190016],[-98.56749212317311,32.51514766837895],[-98.47518849873653,32.513027491639384],[-98.4751454206703,32.298923722936586],[-98.91858463700281,32.078412056270764],[-98.66845977233244,31.70052236183025],[-98.75710983103818,31.687528996465677],[-98.77996107577239,31.610742532076724],[-98.99161302012521,31.484083408295298],[-99.08951275228249,31.457616287359194],[-99.09232839929064,30.941013424950242],[-99.47944713202331,30.93942538960105],[-99.48471634096082,30.930576600888593],[-99.48388058407393,30.710782532115683],[-100.11179674446676,30.708685996961822],[-100.11647241354638,30.290307363289397],[-101.75314793652569,30.286868286252012],[-101.75844962567201,30.27809051368817],[-101.76184804004579,29.7772005110283],[-101.94389007093196,29.801379914348594],[-102.0500463465367,29.78508250210661],[-102.11607317452088,29.792537869070998],[-102.29707234692539,29.874500774489483],[-102.32000244690082,29.875193034764692],[-102.36443083809574,29.84291598624763],[-102.3866857448065,29.761494147567078],[-102.48678492244827,29.786335747456818],[-102.55491887340128,29.748979633938127],[-102.6128741427481,29.74813728212903],[-102.66669120141611,29.7365015973051],[-102.69006073038378,29.7206786405754],[-102.74563457826002,29.592771449380415],[-102.78181625177032,29.54246307283838],[-102.80893278487162,29.520779338845145],[-102.83333243636353,29.408985561890916],[-102.87603803279913,29.352787483830326],[-102.89553091267348,29.284246876607973],[-102.88753426517506,29.251456238465117],[-102.87135692565825,29.241616526995898],[-102.86685940075947,29.22501885800208],[-102.95057088605583,29.17700081050183],[-102.99671855997455,29.159922993640734],[-103.10342070809975,29.034702455945922],[-103.11533751127124,28.98527886242779],[-103.1640728791248,28.97213068255524],[-103.28190082923005,28.99009798005707],[-103.38350247469755,29.024124161789675],[-103.47102460891307,29.07537467150757],[-103.47285792237997,29.08746416778044],[-103.50364692215615,29.119454372541387],[-103.55746485164842,29.154332476803255],[-103.71486087893012,29.184149845452758],[-103.76780712757622,29.224960300735663],[-103.79269427714345,29.26294247908187],[-103.8043103148999,30.41025251461652],[-103.90125783658267,30.412239943071583],[-104.97423556535888,30.628462273675915],[-104.98521518739271,30.623934482331293]]]}},{"type":"Feature","properties":{"utility":"swepco"},"geometry":{"type":"Polygon","coordinates":[[[-95.85772548481856,33.461733137166064],[-95.84632260844305,33.84112226152418],[-95.82414403298257,33.83787419018569],[-95.76765225358353,33.847474510296216],[-95.75714727593632,33.86728494206262],[-95.59967597346404,33.93423697816442],[-95.55942330064438,33.93016858273281],[-95.54915663761314,33.90794774318608],[-95.55172197576915,33.888539468192384],[-95.54289196682493,33.87998952345732],[-95.40830819629564,33.8663423699279],[-95.28856741666065,33.873571302027116],[-95.25512072088608,33.89287721221103],[-95.24835070090211,33.91178380058048],[-95.2528942210179,33.93364256642641],[-95.22639145965472,33.96194268237301],[-95.06725967970992,33.91733904188742],[-95.03816545388179,33.85981106795989],[-94.86972281382653,33.74622446806039],[-94.82246540620822,33.732757131800376],[-94.76061037582093,33.72704381951342],[-94.73313934015498,33.690437229775846],[-94.52880217138218,33.6161786682263],[-94.49205001109088,33.62539195508382],[-94.48587096354582,33.63783226902449],[-94.46383836073598,33.59860530068172],[-94.3589319734823,33.544641618622876],[-94.25265124868658,33.5861312750998],[-94.18180544704742,33.59320603548323],[-94.08524522478619,33.575537756908375],[-94.04346272763149,33.55224622200912],[-94.04267348309264,32.00345624995838],[-94.01563608637764,31.979850934721913],[-93.97566807484148,31.924178396324844],[-93.92029698814743,31.888640763603476],[-93.84019618191739,31.800787185101882],[-93.81249068077193,31.715244575991594],[-93.83493309621514,31.586220419880462],[-93.98363990103019,31.564203748864053],[-93.98324968266934,31.46611860740284],[-94.04392953889533,31.407354570717974],[-94.03904666578354,31.134279514010235],[-94.12963081135292,31.099291931410264],[-94.32660406267208,31.224754463673943],[-94.49445092761552,31.40352687067244],[-94.53062717852313,31.398667055519784],[-94.54945925476284,31.432296437968645],[-94.72867438715052,31.457240704253476],[-94.8659940098127,31.52709807355439],[-94.95195668287708,31.64135605924791],[-94.96715692464163,31.753766325337953],[-94.94137096451902,31.837525324220838],[-94.94912299504045,31.84551761113349],[-94.98502570912466,31.846204149231493],[-94.9871067469248,32.53100187310986],[-94.99497181542456,32.538832797334074],[-95.15339828396884,32.57012459067595],[-95.15386309812763,32.96743094863913],[-95.30894555784135,32.96258336983646],[-95.30971411686946,33.378084256425694],[-95.62148777188129,33.48704645887596],[-95.75746402167358,33.494876577196464],[-95.82673232061319,33.459049463258886],[-95.85772548481856,33.461733137166064]]]}},{"type":"Feature","properties":{"utility":"pedernales"},"geometry":{"type":"MultiPolygon","coordinates":[[[[-100.70038151780611,30.28826455120361],[-100.12171313764621,30.291442705815346],[-100.11645562574577,30.30024121134073],[-100.11622252721288,30.71035452836087],[-99.49006742725652,30.7115313133385],[-99.48390767339104,30.7208031220764],[-99.48474342107995,30.940593477292825],[-99.09256358063756,30.94100175055292],[-99.09121661007575,30.927256244816963],[-99.08241815084787,30.921920998306266],[-98.44578787075012,30.92142681985071],[-98.37689389431792,30.834891498273485],[-98.42631693286604,30.786514771065605],[-98.37192303626425,30.74048377596539],[-98.43695501598431,30.670873048265282],[-98.35074399346948,30.487207265936437],[-98.1255750645094,30.426178880170934],[-98.16796603377068,30.363611756418457],[-98.16571358762135,30.35124849657469],[-97.71588322088026,30.028656936569845],[-97.70497057325183,30.029180148635668],[-97.65525694658518,30.07289236160156],[-97.31584099118169,29.78654067115628],[-97.59774305203808,29.63073182621984],[-97.72184461790894,29.682098758264498],[-97.86875906598517,29.85074570441577],[-97.87846761572445,29.853939763159364],[-98.08994628800632,29.68348741324152],[-98.31092515550765,29.594486684026045],[-98.37805329584337,29.662614401023557],[-98.34831183346294,29.707598317831128],[-98.35482790670899,29.721018631831782],[-98.44384994816356,29.719661697703394],[-98.55105303942022,29.76039579481822],[-98.7775912305544,29.720169018917783],[-98.80653576152285,29.686715042614868],[-98.80491149399751,29.090445520860317],[-100.11139443838314,29.08632966009155],[-100.11501480997879,29.62034557673677],[-100.6999205371039,29.623908458487694],[-100.70038151780611,30.28826455120361]]],[[[-98.40732105047182,29.11443538481395],[-98.13417471631256,29.441735977113016],[-98.08188998818562,29.379755559690473],[-97.84040432157254,29.37678065747891],[-97.85382299384757,29.348160527751766],[-97.72845954106928,29.22174928800614],[-98.19098958922234,28.882348006426728],[-98.40732105047182,29.11443538481395]]]]}},{"type":"Feature","properties":{"utility":"aep_central"},"geometry":{"type":"Polygon","coordinates":[[[-100.66834064666337,29.083962462730792],[-98.81392557415198,29.09049554788198],[-98.80494047501672,29.09945972869495],[-98.80475131673369,29.250676628741292],[-98.40734266536779,29.114424723803104],[-98.18922255215615,28.885668817052668],[-97.72844408740595,29.221732232153357],[-97.6131492411989,29.109766250037268],[-97.74593570533827,29.01374613820181],[-97.74946671869822,29.002203578993086],[-97.57992612180858,28.819045509707575],[-97.56749660364304,28.818382255958582],[-97.41733913701776,28.925213167923175],[-97.30417351074601,28.866175919413898],[-96.98153220329101,29.104027537085802],[-97.24009648227404,29.384491393542046],[-97.20407475977812,29.58060554202915],[-97.14263925954988,29.628090828173843],[-96.8736684725654,29.633880933345004],[-96.56984301991821,29.961500131630984],[-96.41482314868831,29.826587373336505],[-96.34448254315713,29.8301351575509],[-96.25981711889499,29.670441682641407],[-96.17544357185099,29.63380232819217],[-96.30716220799493,29.514744381519975],[-96.34922705058997,29.40606080289297],[-96.62757910074255,29.25472754666021],[-96.63002169449591,29.239021573219546],[-96.30794827061808,28.965334942062388],[-95.96558208840699,29.146697455842727],[-95.87403476571116,29.2296804968553],[-95.84581304836165,29.108762432559388],[-95.77045809967845,29.06620237186227],[-95.76275943402773,28.970336112623986],[-95.67955540434377,28.965722833644193],[-95.5689781306189,28.83161615617905],[-95.5070751468666,28.824747454432725],[-95.81262761550744,28.664886962218354],[-96.22034454839576,28.49190723293278],[-96.3670044423574,28.400403588017046],[-96.37860928811165,28.383925033121475],[-96.38185183653471,28.393274294956456],[-96.37413140717787,28.404269499031724],[-96.33511383714132,28.437787856072287],[-96.26833677060927,28.477983334441525],[-96.22437128587714,28.49504239453872],[-96.2150403208649,28.509669947227536],[-96.04642702685578,28.586878560692647],[-95.98787948464293,28.60623623379791],[-95.9834910769846,28.65231194685216],[-95.99644640123132,28.657978268156345],[-96.00652253266158,28.648061097868577],[-96.0464319564238,28.64939323799694],[-96.19837801353233,28.586988359298598],[-96.22890017329902,28.580884255572034],[-96.2339853268981,28.601730013110263],[-96.21332186803866,28.619479494629513],[-96.23092714307623,28.641432587034753],[-96.19341181291524,28.689875424998885],[-96.20067906228306,28.70041352827011],[-96.22227180492715,28.69849728740717],[-96.2569021145996,28.684700367977186],[-96.28735893348244,28.68326543881266],[-96.30398193707887,28.6696796457511],[-96.30373115583829,28.64500609725921],[-96.37020921869015,28.62764614070382],[-96.48792314456688,28.569693244524537],[-96.48101205618569,28.5975813131425],[-96.48967962271175,28.610302821136802],[-96.51083047341365,28.614979017816534],[-96.50123151113448,28.625555585037386],[-96.50372047385214,28.636249057864532],[-96.56325497949557,28.644499945285734],[-96.57291816532906,28.667896979335158],[-96.56134793372331,28.691617312052113],[-96.57800823579156,28.70454642307742],[-96.5838738812054,28.721571368480117],[-96.59539288063974,28.724884766514407],[-96.6486646579509,28.7094473273482],[-96.66036153735155,28.691907847324828],[-96.63503017740841,28.66890770709616],[-96.63175473494329,28.65320661013286],[-96.61060045490399,28.638884958115675],[-96.62196427369727,28.620998084477225],[-96.61064004141235,28.58705781949756],[-96.56530717968903,28.582390470374527],[-96.55898223078152,28.5697347653691],[-96.5261158766106,28.557961474368636],[-96.50602063344763,28.526242646851372],[-96.4198931197769,28.467497486322497],[-96.4039832965163,28.442459118315035],[-96.54316853279924,28.385332222349852],[-96.59209795682249,28.35734274639632],[-96.6726757959572,28.33559352412591],[-96.70523340493337,28.34881537700294],[-96.70040793935077,28.370733112775753],[-96.71079524266175,28.40610287352821],[-96.77400746057266,28.406995209428743],[-96.79467206951419,28.365019144512797],[-96.79177171088159,28.3121747680202],[-96.80827620723299,28.291740083360402],[-96.78719407872663,28.255676821872196],[-96.80042147205131,28.224135212746365],[-96.93476937366638,28.12388360587504],[-96.96275305352874,28.123376219054574],[-97.00139996239778,28.137216813585756],[-97.02521709312926,28.125141824164892],[-97.02286729211514,28.107342891747845],[-97.035528,28.082812097766052],[-97.02598297425193,28.04172825108008],[-97.12912974229546,27.918401307406167],[-97.18719255930161,27.82413694769538],[-97.2251683926,27.825732331340536],[-97.24956235962996,27.87424681903537],[-97.27318320868152,27.881507061421196],[-97.32506891154728,27.867833516797127],[-97.37971116281663,27.836507636252843],[-97.39152626313003,27.813882463569737],[-97.39309599747654,27.783409945144648],[-97.36861214904081,27.742128713312017],[-97.31711374301167,27.712954215320448],[-97.25396974674054,27.69668810709912],[-97.2965390827263,27.613926817284057],[-97.29406885420885,27.594100924557175],[-97.32170949555687,27.570126561699993],[-97.34351072156483,27.517199257871397],[-97.3505534511128,27.478580302714523],[-97.36637937047745,27.448215607471884],[-97.37294431495862,27.401227457514096],[-97.40195715776169,27.33558014552896],[-97.42026731650905,27.317263463869555],[-97.45118029223563,27.313316970989526],[-97.48241928563527,27.298084387910585],[-97.50830773276186,27.275026396614283],[-97.53221984346591,27.278587623664116],[-97.5469633590458,27.290776841751555],[-97.53099035301574,27.29076879056173],[-97.50439160339457,27.307373865852078],[-97.50257349203974,27.32255124805208],[-97.48428891758127,27.34099398626212],[-97.4870942771327,27.358147532314685],[-97.50503370232988,27.36523088128079],[-97.6090716203249,27.28520437071668],[-97.63418436615692,27.28403061414328],[-97.63924901699802,27.255846007638976],[-97.62879007498847,27.24335709465735],[-97.54243734327443,27.22929890030655],[-97.51864400166147,27.231794106625518],[-97.45028639097319,27.262533666721836],[-97.42408842568007,27.264061192863693],[-97.44368541234478,27.1162455512316],[-97.45341504908535,27.112777613295854],[-97.46174200080739,27.09563642996372],[-97.48372739402494,27.102077702201445],[-97.4950567740293,27.094302176344648],[-97.4926233284232,27.078467042435083],[-97.47752903770022,27.066104492511183],[-97.48761475872902,27.053094139681548],[-97.48564959400649,27.037552823377215],[-97.4739632240637,27.029207047399844],[-97.47854453264685,26.999193384918726],[-97.53632053841672,26.99965764920025],[-97.55265445913598,26.990012144819275],[-97.55532319952262,26.93996048467753],[-97.54012345630409,26.90097219743413],[-97.5515888229718,26.889285291059227],[-97.5623813958394,26.842868376483096],[-97.55121598974812,26.827005547599715],[-97.50983800270764,26.803504597136214],[-97.48433836695666,26.76359942101267],[-97.47167187943279,26.758713526474665],[-97.44531598867343,26.60895822109563],[-97.41696767390837,26.553634579071232],[-97.43053906944243,26.506073153780783],[-97.42638389238469,26.484425087718897],[-97.4409386654727,26.455555069381997],[-97.41162353458898,26.447268279841275],[-97.41494596081994,26.412620209835072],[-97.40257441629669,26.40988360985999],[-97.39506398919006,26.417232461950707],[-97.37777838711536,26.409096914154826],[-97.36963894220132,26.3946019628946],[-97.38896808989617,26.36430809244576],[-97.38834146976035,26.33813120028469],[-97.37632504935837,26.336526190763962],[-97.35791414793316,26.356484662822545],[-97.34341944642354,26.35922119252949],[-97.33045449174864,26.350579026756787],[-97.34862969109747,26.31899407996207],[-97.3448939951103,26.274283689663573],[-97.33474562396006,26.265673053763273],[-97.31187511155301,26.273723377094196],[-97.30708868142094,26.252895330977747],[-97.32123493092348,26.23067965976822],[-97.29654872490309,26.200476679399927],[-97.3054596228938,26.1595539316492],[-97.28210609597508,26.12030097813198],[-97.28994716121008,26.103521269588345],[-97.26937823416236,26.086070957104674],[-97.19966106605568,26.0770354678892],[-97.19623177015225,26.056846943269093],[-97.18611848387452,26.051983512402558],[-97.16565061713688,26.06994924439603],[-97.1840196079374,26.21448942976786],[-97.21474420211248,26.35304103012445],[-97.24027505787016,26.40598487460503],[-97.24767365814337,26.456243701611637],[-97.27525582837606,26.518331264345477],[-97.2923900933111,26.5280248492382],[-97.31071870017088,26.556560256575718],[-97.30885808891574,26.577158713715693],[-97.33847748875712,26.64743046390561],[-97.34504003007618,26.697540498587536],[-97.37042776206906,26.723899111090475],[-97.36422627779409,26.758991422029528],[-97.36892479324742,26.797088670713347],[-97.38744794844686,26.820793620663352],[-97.39007993626386,27.156281695455768],[-97.37926670092455,27.19411228841051],[-97.38666029030645,27.20470581051632],[-97.37330371856068,27.27644758471381],[-97.35896929363795,27.31031428306862],[-97.3667586173157,27.333278594073686],[-97.36178566938408,27.359984531788992],[-97.3312026239238,27.412379432536962],[-97.31726518788126,27.463683410525583],[-97.24058219743942,27.592612370558395],[-97.24262870406012,27.607457147296174],[-97.23137511245636,27.63232448683921],[-97.21331882740022,27.63386863014454],[-97.20091957311463,27.650224447183245],[-97.20307762851014,27.68799210317381],[-97.18883406758147,27.69458096784963],[-97.16616681280287,27.732362585424696],[-97.14785338077145,27.735381128900464],[-97.1315059404164,27.75094790516423],[-97.10415830012134,27.788368394261045],[-97.10072998574655,27.818193217788952],[-97.1344723225435,27.8252055105696],[-97.05443137924513,27.84514007368126],[-97.01712452346612,27.90124458446425],[-97.01637113577398,27.917248297751424],[-96.98548036069094,27.954922457206795],[-96.98664716252304,27.98075734067807],[-96.96792317891695,28.019837678577034],[-96.95244922330807,28.018322720649998],[-96.92923036743797,28.03978659699902],[-96.9270724387284,28.0572830263858],[-96.8902809939575,28.080567517428886],[-96.87941522717544,28.131392389767548],[-96.84674262323132,28.10988624122267],[-96.82620493141602,28.113061471531122],[-96.81074272378913,28.12831438205041],[-96.82284425331096,28.167474890018617],[-96.81619930107827,28.174946137526437],[-96.79195482269667,28.18867581255008],[-96.70728297586821,28.19757263083316],[-96.70330106769019,28.216435880991696],[-96.66700305624646,28.226133352517756],[-96.65184774368969,28.251266528894345],[-96.61557447927287,28.27267122337889],[-96.59292901315764,28.296964458022693],[-96.55197401108957,28.30306162116345],[-96.5289020891253,28.32249268785582],[-96.45101220276588,28.3370796199827],[-96.40321285833797,28.3714619216098],[-96.39785952201363,28.34351741572481],[-96.41370617996411,28.327352958799377],[-96.54816943124236,28.27057767145881],[-96.69448791126784,28.182235865310346],[-96.84928123479686,28.065208519715384],[-96.96686567839637,27.950668074160685],[-97.1664955805043,27.67686414005326],[-97.30457926536482,27.40743611525579],[-97.3502970309965,27.268441267715062],[-97.37090186972324,27.161421332840394],[-97.37912623309315,27.047725650860688],[-97.37076078839425,26.91003066656242],[-97.33293661505829,26.736193287118954],[-97.22988059110898,26.43368046927876],[-97.19461644300034,26.306389588482258],[-97.15202129233161,26.06210358477925],[-97.14558047463265,25.971140629225797],[-97.27088603259241,25.951913263751262],[-97.34722670432491,25.931239822066853],[-97.36302191508577,25.913894456950132],[-97.36673497970334,25.8850721672235],[-97.40835910311891,25.85647119921146],[-97.51144111534164,25.887655713476885],[-97.58255948757541,25.937863578422892],[-97.67603951902605,26.034412879456756],[-97.88870107199983,26.064893388880716],[-98.00461625915811,26.061216850704557],[-98.04451858256698,26.043760298200006],[-98.24166046217817,26.074555390245283],[-98.38668808731143,26.157880201671013],[-98.44076946600538,26.21282128363424],[-98.58581978234878,26.25734303575846],[-98.62101755805669,26.259243681737797],[-98.63290306334058,26.250362678711248],[-98.70566829011396,26.27749096074106],[-98.75089550234935,26.33092513010424],[-98.80699247630515,26.368941041325424],[-98.86135325763186,26.36600630213815],[-99.04734373912866,26.40687116808531],[-99.10571015589353,26.43872868130587],[-99.16798659750145,26.557802883580308],[-99.2422550803332,26.787704863814806],[-99.26846096922954,26.842811787781685],[-99.3219604917723,26.90666438529109],[-99.37914186248732,26.934498741084695],[-99.44651197472612,27.023013053106332],[-99.45230585241036,27.06266842218253],[-99.43001426934597,27.09537218571185],[-99.4264013511588,27.175023953950475],[-99.44130717027298,27.248546958276787],[-99.45396102838413,27.264616464954045],[-99.49467040353922,27.277606657461497],[-99.53775691521149,27.316070922979122],[-99.50725675522044,27.356092798898736],[-99.49309026056675,27.389865813024997],[-99.48047912057233,27.483159277479942],[-99.51941851149664,27.5735479053627],[-99.54260909142621,27.606288234993663],[-99.59972056148388,27.640708381880714],[-99.66617131917549,27.638334871037976],[-99.84366902329602,27.774759756499538],[-99.87616420371901,27.806282796335896],[-99.90140724367046,27.86398189218979],[-99.89913790028208,27.9055456388536],[-99.99143829982144,27.99456688975328],[-100.08437549205853,28.14451633324935],[-100.20244103512066,28.1905645851534],[-100.29138221556248,28.27540377602842],[-100.3469756514141,28.407233336630437],[-100.33576774056218,28.49740032931509],[-100.38695538723238,28.514035094947094],[-100.40504681794623,28.53578671678453],[-100.43016786970811,28.596196408118068],[-100.5003448859403,28.66196597269402],[-100.51196687533846,28.70511765997236],[-100.50778095047333,28.74056100644864],[-100.53569891759646,28.80565822859222],[-100.54753028978692,28.82593313020312],[-100.64008363689939,28.915838358559117],[-100.65142090256296,28.94321184254251],[-100.6467167457172,28.990129614746824],[-100.66834064666337,29.083962462730792]],[[-97.18231246335955,26.047817226701504],[-97.22448521827272,26.02277212484092],[-97.21382870591725,25.99313109403625],[-97.17579703243051,25.999677040411836],[-97.16324566271041,26.014173142344056],[-97.17014924462136,26.040345330872626],[-97.18231246335955,26.047817226701504]]]}},{"type":"Feature","properties":{"utility":"bluebonnet"},"geometry":{"type":"Polygon","coordinates":[[[-97.64942706230708,30.067870294382114],[-97.49246168893391,30.210401414763137],[-97.3695346612409,30.419548293017645],[-97.33164830696242,30.403743519370742],[-97.15610727725739,30.457073910073394],[-96.96363154633285,30.557154097921252],[-96.73847442938528,30.318252919581887],[-96.63950642822873,30.297176013481494],[-96.35897346547905,30.372624098885268],[-96.3396400235835,30.368922632587434],[-96.3127938426643,30.384286632216202],[-96.19954947512639,30.38289751499128],[-96.15412450283105,30.33005186612838],[-96.08590474939088,30.28897720650622],[-96.09317578867325,30.225196173754856],[-96.15869468454382,30.205504723281503],[-96.18968369724298,30.138087887902167],[-96.14607590114545,30.070239189260604],[-96.2934019713958,30.096001261403153],[-96.61148314264999,30.044726112263614],[-96.61437349703864,30.032299072156004],[-96.56985887688124,29.9615172536412],[-96.87422699471654,29.63271758009068],[-97.1426199298532,29.62811234994354],[-97.1379542229479,29.64884443619451],[-97.31769813909679,29.784510991167494],[-97.64942706230708,30.067870294382114]]]}},{"type":"Feature","properties":{"utility":"gvec"},"geometry":{"type":"Polygon","coordinates":[[[-98.3109137882128,29.594466724428187],[-98.08960302370382,29.683785935371517],[-97.87526018130751,29.858192072811136],[-97.72207575265693,29.682655245276447],[-97.5987450355505,29.63215362589074],[-97.31789395008627,29.78464477418237],[-97.13053388893815,29.643293869837095],[-97.20419001225501,29.57884851594825],[-97.23825749698544,29.38309235161919],[-96.97639574186945,29.104047660303706],[-97.30591681391583,28.864049772809715],[-97.41874802357513,28.923221057797715],[-97.57463751312059,28.813314628746244],[-97.75509230808407,29.00711126932826],[-97.62202797892975,29.103391018063864],[-97.61991271649681,29.115764742677378],[-97.85861297420841,29.3527199328646],[-97.85347614648776,29.374116205720735],[-98.08467822393426,29.37960580817152],[-98.13415927195499,29.441753942028242],[-98.13123213114977,29.48384168323684],[-98.29851361121442,29.561151132013638],[-98.3109137882128,29.594466724428187]]]}},{"type":"Feature","properties":{"utility":"entergy_tx"},"geometry":{"type":"Polygon","coordinates":[[[-96.96361066661478,30.557165764269588],[-96.62127887346601,30.730807623594405],[-96.59947656829075,30.728622696523633],[-96.59338530669733,30.71405220993459],[-96.56169353072107,30.698808388130175],[-96.45947760153945,30.74369979050251],[-96.33646112762894,30.921490786755548],[-96.26295225197278,30.964240235127402],[-95.97383822145628,31.092137184799054],[-95.76468973563578,31.094208247135594],[-95.66355915967007,31.083874109467196],[-95.67977482515025,30.987433234679063],[-95.62302656091666,30.935084312520747],[-95.61304878926443,30.93400357487846],[-94.95811152875444,31.38691431680224],[-94.90951482014191,31.3370510628049],[-94.83814334114665,31.145080066124745],[-94.45781469995312,31.033572508097674],[-94.12883599040676,31.099587436937654],[-94.03957013293667,31.13825199279436],[-94.04414311634444,31.409974349348406],[-93.98393425117102,31.46692071204104],[-93.98444935862895,31.56940871585917],[-93.83492992650143,31.586196997318144],[-93.79879005082864,31.534756895941495],[-93.72962200548395,31.487914537852394],[-93.6947829756552,31.408509524327805],[-93.64082056034084,31.372540247220442],[-93.66937752275767,31.300657293799638],[-93.61452183854114,31.26106347891459],[-93.59865573559577,31.174771916847213],[-93.58466424934645,31.166394873772756],[-93.54920459774085,31.186525493391546],[-93.5317550593103,31.18081328228148],[-93.52766018505537,31.07451022146807],[-93.54024618938807,31.007628382469303],[-93.53094774260103,30.924536096183108],[-93.55844694515365,30.869374321723527],[-93.56330228059218,30.818507554684757],[-93.7271619981357,30.57511035984863],[-93.73854460549417,30.542519261150954],[-93.71012669771223,30.506395072329788],[-93.69828074825328,30.438889289661923],[-93.75637446383473,30.39137713200878],[-93.76525592003001,30.335973058111552],[-93.7368831087171,30.300632198953238],[-93.72058558095688,30.29594490417899],[-93.71200764733814,30.19474807523845],[-93.69526331012342,30.147598243811533],[-93.71203944315849,30.067602407473572],[-93.7520460660211,30.016413433997684],[-93.78967155163767,29.987390613791398],[-93.89079796477034,29.841600067328233],[-93.89729083018335,29.77146605631515],[-93.83798720476898,29.6906203159846],[-93.8669823561343,29.6731024020115],[-94.00034332855458,29.681457714821338],[-94.0558579383199,29.671284414532188],[-94.35415234687808,29.56147467625998],[-94.36145138947947,29.88537877722824],[-94.98144945992114,29.884287126199236],[-94.986048283442,29.97002415219876],[-95.03116978248313,29.993332592006265],[-95.09183196255618,30.154274779943144],[-95.10002638554205,30.16068056003941],[-95.26401477175195,30.03223163931491],[-95.5490564348317,30.168852224814724],[-95.65543426849881,30.109006423787775],[-95.80332968245749,30.090107509606863],[-95.94754155967806,30.153253701565564],[-95.95264373659337,30.140855352768515],[-95.82623423951635,29.788287253108354],[-96.03270273844089,29.727957934398713],[-96.05033272029975,29.802956634108966],[-96.1213016565213,29.841969866271853],[-96.12274112465964,29.968539589137862],[-96.0910443203672,29.998975664428688],[-96.08929520200611,30.009068489678775],[-96.14625900905611,30.070518068214547],[-96.19140560015596,30.134670182379104],[-96.15900171544901,30.20660338586944],[-96.09412192674414,30.227291938579455],[-96.08987635387332,30.29116552397577],[-96.15462586344269,30.330298023571444],[-96.20338153843623,30.382715036200242],[-96.31417257814432,30.38297181879225],[-96.34048680494602,30.367937601385936],[-96.35925052708022,30.371479138296085],[-96.64088341077311,30.296796815825914],[-96.74053555864407,30.318666317931164],[-96.96361066661478,30.557165764269588]]]}},{"type":"Feature","properties":{"utility":"austin_energy"},"geometry":{"type":"Polygon","coordinates":[[[-98.172961484914,30.356314826673238],[-98.12626299776642,30.42544759251962],[-98.12310140752345,30.484720644448487],[-98.04964907119991,30.62416541294344],[-97.95673886617023,30.628237253852294],[-97.77566665272113,30.432232098424734],[-97.57616722913728,30.501784921999043],[-97.36955539371739,30.419557569149365],[-97.49268832325401,30.209953655626244],[-97.64926976139199,30.06802844320614],[-97.66099524679088,30.06778690779656],[-97.71021568516232,30.024513290448358],[-98.172961484914,30.356314826673238]]]}},{"type":"Feature","properties":{"utility":"centerpoint"},"geometry":{"type":"Polygon","coordinates":[[[-96.64029585683873,29.24780196439194],[-96.35079362226251,29.405426398069082],[-96.30766268530496,29.514516609166733],[-96.18383097783257,29.630348478161046],[-96.18905561119135,29.639462440001708],[-96.25921749409126,29.668921304995614],[-96.34312045283183,29.826690946059284],[-96.41327888888134,29.82499735844538],[-96.56983499251963,29.961523709019012],[-96.62196118267512,30.04427445671944],[-96.2928491417223,30.096134684321598],[-96.1460569672835,30.070214445974592],[-96.08455707115884,30.005137401104204],[-96.12251917181737,29.966242307750267],[-96.12092801509593,29.845000035741243],[-96.04924384192374,29.803179569216113],[-96.03475534981894,29.737470127042407],[-96.02625159872909,29.7305964962763],[-95.83641263134083,29.78530174620405],[-95.82930878858225,29.793550932712808],[-95.960714194354,30.16339438717667],[-95.801396486065,30.09038740549094],[-95.65549870302388,30.10919396533325],[-95.55142079964676,30.170593522272735],[-95.26574845265084,30.033928312145893],[-95.09671318803491,30.167194938872935],[-95.0317677442517,29.99542350439145],[-94.98537571451665,29.97227111799729],[-94.98179962197273,29.892970920869605],[-94.97555413157075,29.885062138902835],[-94.35798687456617,29.887453264968993],[-94.35439989024813,29.561368388026384],[-94.37085454416236,29.555087061239696],[-94.37335283203272,29.592903516704155],[-94.40128060721489,29.597361771092864],[-94.40947038305514,29.591626952239807],[-94.41278237197689,29.572621862464814],[-94.51108641763047,29.542985177562674],[-94.55456283435461,29.573758541515822],[-94.74070123016851,29.525866937736183],[-94.78093074585357,29.531101195739122],[-94.79058645642867,29.548391276960313],[-94.77090365592744,29.549546716987077],[-94.75547558902376,29.562565631615584],[-94.70910660883291,29.624764700209614],[-94.69331132165689,29.693754282713705],[-94.69623503256014,29.724672367105182],[-94.72442510642975,29.774347343621546],[-94.74049217714746,29.786415152906013],[-94.81671709974772,29.75601238815459],[-94.851300295524,29.720913251762436],[-94.87256016867775,29.67126063551957],[-94.89311286187613,29.661353169897264],[-94.92131107690965,29.658187396916897],[-94.93859860307818,29.694575979372633],[-94.96595434023877,29.69740620299027],[-95.0145895783578,29.642195483748964],[-95.01204680411178,29.628324468692306],[-94.9827197637048,29.601343582238716],[-95.01820168471211,29.554592988583753],[-95.16392358345927,29.498065416744677],[-95.204184974316,29.542261085244256],[-95.21695304199652,29.541538438304443],[-95.23175177434625,29.463896499559677],[-95.05654111230848,29.19993326563186],[-95.12514439222865,29.067329357239107],[-95.23913885468203,28.988469381435614],[-95.29715454344694,28.934083256467684],[-95.3534336669437,28.89812344325623],[-95.38239739810045,28.866358068975675],[-95.4405683106268,28.858488536303348],[-95.50704377801637,28.82476757253667],[-95.56770182519662,28.829769792107566],[-95.67956349965438,28.964605414108117],[-95.76492573584132,28.967370684674833],[-95.77116609597779,29.064559784406786],[-95.84630052905425,29.107806147009956],[-95.8765102074514,29.220159740955037],[-95.96520118011811,29.1468717422947],[-96.30917639361888,28.96330557194936],[-96.64029585683873,29.24780196439194]]]}},{"type":"Feature","properties":{"utility":"cps_energy"},"geometry":{"type":"Polygon","coordinates":[[[-98.80654090130514,29.690704619429994],[-98.77877518565286,29.720154545039968],[-98.55049047273836,29.760698791679022],[-98.44381899386462,29.71983817093416],[-98.33863923924136,29.721774354540873],[-98.37405536231226,29.668546006327603],[-98.37358304853475,29.65833168255053],[-98.31093986617184,29.594465442094336],[-98.29625558307818,29.56046451310281],[-98.12678078035928,29.482240904763756],[-98.13418133047057,29.441759169600775],[-98.40733993955396,29.114449187733275],[-98.80453803314947,29.25061587002866],[-98.80654090130514,29.690704619429994]]]}},{"type":"Feature","properties":{"utility":"other_coops"},"geometry":{"type":"MultiPolygon","coordinates":[[[[-100.54671256710517,36.05654733921735],[-100.5461335359178,36.49933151938012],[-100.00041750715222,36.49969048237513],[-100.00041051640859,36.055688533605505],[-100.54671256710517,36.05654733921735]]],[[[-101.76182548847038,29.77719604035528],[-101.75838862559006,30.28803256489771],[-100.70040450414349,30.288264465732517],[-100.69875748152629,29.629171025912214],[-100.68994971428015,29.62388623374771],[-100.11210944791297,29.623251549680006],[-100.111417477982,29.08632942185652],[-100.66834916052672,29.083983930626758],[-100.79737793929101,29.246513009511403],[-100.95316193705766,29.347031509183537],[-100.99559890677654,29.36341424714227],[-101.03762909445048,29.41468844697621],[-101.06089405703055,29.458524380958835],[-101.08765935710792,29.469406632351237],[-101.13749944926701,29.473554230598726],[-101.23526459829877,29.524861234625075],[-101.24947319843744,29.62238461521909],[-101.31325666208248,29.658516477046135],[-101.34373571643293,29.662058755333764],[-101.40518706424989,29.757475188795095],[-101.45619624098417,29.770194087041673],[-101.62088661857642,29.771037042510745],[-101.64641898873141,29.75431535788905],[-101.76182548847038,29.77719604035528]]],[[[-104.98534804352512,30.62379163730015],[-104.97640286541768,30.628899019618785],[-103.90200452632821,30.412390413107154],[-103.80069138747623,30.412515504238208],[-103.7927168537475,29.26294737739734],[-103.83902763722627,29.278434500414946],[-104.02568721061401,29.3145200741754],[-104.16729300041182,29.402752244481906],[-104.23779687942543,29.49793267702574],[-104.39434674690608,29.560542689178792],[-104.51550247920058,29.641502349274873],[-104.53855838858138,29.677400819904026],[-104.5661073932445,29.771351231779335],[-104.63296618201697,29.870029693320056],[-104.67986273621361,29.92095044972932],[-104.69357329775943,30.01907731106605],[-104.68731859391319,30.178572019611313],[-104.70877472248611,30.23530611683433],[-104.7613625403478,30.300739132590806],[-104.85950990506346,30.390418518251906],[-104.87382159728863,30.501908075712063],[-104.92884128214642,30.597216527246093],[-104.97206354338324,30.61027288594115],[-104.98534804352512,30.62379163730015]]]]}},{"type":"Feature","properties":{"utility":"el_paso_electric"},"geometry":{"type":"Polygon","coordinates":[[[-106.62779634792827,31.860594822459483],[-106.6147365343883,31.955817911778247],[-106.59884942259086,32.00074340980396],[-104.0245333162202,31.99999871092984],[-104.10236228461436,31.10521040079033],[-104.98536479811685,30.623808053953613],[-105.04492750081668,30.684301025083307],[-105.12885781552744,30.749772224994995],[-105.20878513698169,30.798129923332645],[-105.26547545703595,30.802546828256126],[-105.39461810122292,30.858929370216618],[-105.4132210009675,30.894221846330527],[-105.55678187985794,30.98947725810111],[-105.60380305742949,31.082901518946315],[-105.6484419734954,31.11555095950895],[-105.70948598361976,31.13638495286195],[-105.75070372010508,31.16509723871352],[-105.79371408424575,31.20171796947396],[-105.8683644356157,31.28742098919593],[-105.92312107639924,31.312101855047658],[-105.98197351349378,31.37576892555372],[-106.00785299241328,31.3930018124751],[-106.1327771996681,31.42537816228422],[-106.20302364463217,31.46421337256958],[-106.38043557302984,31.73128263900311],[-106.4348112940352,31.756372404929703],[-106.47271890703962,31.751919413134395],[-106.52853189715492,31.783913434410987],[-106.53795388344412,31.79974871607845],[-106.62779634792827,31.860594822459483]]]}},{"type":"Feature","properties":{"utility":"coserv"},"geometry":{"type":"Polygon","coordinates":[[[-97.39846864705797,32.99084919867166],[-97.38308395697845,33.43043819572686],[-96.94402492519177,33.41641543642268],[-96.83401619109436,33.40549323772637],[-96.84399009667048,32.98756545520381],[-97.39846864705797,32.99084919867166]]]}}]}